zipcode;province;region
3800;Limburg;Vlaams
8700;West-Vlanderen;Vlaams
6250;Hainaut;Wallonie
5550;Namur;Wallonie
6680;Luxembourg;Wallonie
9960;Oost-Vlanderen;Vlaams
3404;Vlaams-Brabant;Vlaams
5550;Namur;Wallonie
7730;Hainaut;Wallonie
3460;Vlaams-Brabant;Vlaams
4280;Liège;Wallonie
5310;Namur;Wallonie
5032;Namur;Wallonie
9420;Oost-Vlanderen;Vlaams
6824;Luxembourg;Wallonie
1480;Brabant Wallon;Wallonie
4480;Liège;Wallonie
4607;Liège;Wallonie
8900;West-Vlanderen;Vlaams
4820;Liège;Wallonie
4920;Liège;Wallonie
7120;Hainaut;Wallonie
6740;Luxembourg;Wallonie
5570;Namur;Wallonie
4458;Liège;Wallonie
6140;Hainaut;Wallonie
7643;Hainaut;Wallonie
6953;Luxembourg;Wallonie
1083;Brussels;Brussels Capital
9890;Oost-Vlanderen;Vlaams
6769;Luxembourg;Wallonie
1367;Brabant Wallon;Wallonie
7742;Hainaut;Wallonie
3001;Vlaams-Brabant;Vlaams
2660;Antwerp;Vlaams
7620;Hainaut;Wallonie
7781;Hainaut;Wallonie
9506;Oost-Vlanderen;Vlaams
3140;Vlaams-Brabant;Vlaams
8680;West-Vlanderen;Vlaams
3850;Limburg;Vlaams
6670;Luxembourg;Wallonie
4431;Liège;Wallonie
6990;Luxembourg;Wallonie
9402;Oost-Vlanderen;Vlaams
8430;West-Vlanderen;Vlaams
9220;Oost-Vlanderen;Vlaams
6800;Luxembourg;Wallonie
1080;Brussels;Brussels Capital
6950;Luxembourg;Wallonie
7730;Hainaut;Wallonie
5600;Namur;Wallonie
8600;West-Vlanderen;Vlaams
1350;Brabant Wallon;Wallonie
5377;Namur;Wallonie
2250;Antwerp;Vlaams
8710;West-Vlanderen;Vlaams
8840;West-Vlanderen;Vlaams
8640;West-Vlanderen;Vlaams
4590;Liège;Wallonie
4800;Liège;Wallonie
1370;Brabant Wallon;Wallonie
4122;Liège;Wallonie
5574;Namur;Wallonie
3550;Limburg;Vlaams
4500;Liège;Wallonie
4400;Liège;Wallonie
9190;Oost-Vlanderen;Vlaams
9910;Oost-Vlanderen;Vlaams
8000;West-Vlanderen;Vlaams
9770;Oost-Vlanderen;Vlaams
6980;Luxembourg;Wallonie
7860;Hainaut;Wallonie
7900;Hainaut;Wallonie
4783;Liège;Wallonie
5575;Namur;Wallonie
3560;Limburg;Vlaams
9870;Oost-Vlanderen;Vlaams
4623;Liège;Wallonie
1380;Brabant Wallon;Wallonie
4557;Liège;Wallonie
2520;Antwerp;Vlaams
9551;Oost-Vlanderen;Vlaams
6250;Hainaut;Wallonie
2840;Antwerp;Vlaams
6800;Luxembourg;Wallonie
7912;Hainaut;Wallonie
7100;Hainaut;Wallonie
6800;Luxembourg;Wallonie
9200;Oost-Vlanderen;Vlaams
9630;Oost-Vlanderen;Vlaams
8200;West-Vlanderen;Vlaams
5377;Namur;Wallonie
5150;Namur;Wallonie
4987;Liège;Wallonie
6812;Luxembourg;Wallonie
2840;Antwerp;Vlaams
9140;Oost-Vlanderen;Vlaams
5380;Namur;Wallonie
6730;Luxembourg;Wallonie
1320;Brabant Wallon;Wallonie
5630;Namur;Wallonie
4550;Liège;Wallonie
6740;Luxembourg;Wallonie
4600;Liège;Wallonie
9520;Oost-Vlanderen;Vlaams
3473;Vlaams-Brabant;Vlaams
2800;Antwerp;Vlaams
5080;Namur;Wallonie
4530;Liège;Wallonie
1440;Brabant Wallon;Wallonie
8953;West-Vlanderen;Vlaams
3550;Limburg;Vlaams
8211;West-Vlanderen;Vlaams
7387;Hainaut;Wallonie
4430;Liège;Wallonie
7750;Hainaut;Wallonie
7910;Hainaut;Wallonie
8310;West-Vlanderen;Vlaams
4400;Liège;Wallonie
4690;Liège;Wallonie
4052;Liège;Wallonie
4610;Liège;Wallonie
7170;Hainaut;Wallonie
1910;Vlaams-Brabant;Vlaams
8980;West-Vlanderen;Vlaams
5640;Namur;Wallonie
4100;Liège;Wallonie
5300;Namur;Wallonie
6464;Hainaut;Wallonie
7641;Hainaut;Wallonie
3891;Limburg;Vlaams
1325;Brabant Wallon;Wallonie
7024;Hainaut;Wallonie
4560;Liège;Wallonie
1325;Brabant Wallon;Wallonie
6929;Luxembourg;Wallonie
9400;Oost-Vlanderen;Vlaams
2480;Antwerp;Vlaams
6836;Luxembourg;Wallonie
4357;Liège;Wallonie
8600;West-Vlanderen;Vlaams
2650;Antwerp;Vlaams
6760;Luxembourg;Wallonie
9660;Oost-Vlanderen;Vlaams
7012;Hainaut;Wallonie
5150;Namur;Wallonie
1350;Brabant Wallon;Wallonie
6596;Hainaut;Wallonie
6210;Hainaut;Wallonie
9000;Oost-Vlanderen;Vlaams
6470;Hainaut;Wallonie
4684;Liège;Wallonie
5377;Namur;Wallonie
9940;Oost-Vlanderen;Vlaams
3300;Vlaams-Brabant;Vlaams
3650;Limburg;Vlaams
9570;Oost-Vlanderen;Vlaams
1428;Brabant Wallon;Wallonie
5575;Namur;Wallonie
3210;Vlaams-Brabant;Vlaams
7522;Hainaut;Wallonie
5680;Namur;Wallonie
3770;Limburg;Vlaams
5555;Namur;Wallonie
5555;Namur;Wallonie
3910;Limburg;Vlaams
4721;Liège;Wallonie
9681;Oost-Vlanderen;Vlaams
8690;West-Vlanderen;Vlaams
1480;Brabant Wallon;Wallonie
9620;Oost-Vlanderen;Vlaams
9500;Oost-Vlanderen;Vlaams
3800;Limburg;Vlaams
4860;Liège;Wallonie
8600;West-Vlanderen;Vlaams
1380;Brabant Wallon;Wallonie
2275;Antwerp;Vlaams
6250;Hainaut;Wallonie
2243;Antwerp;Vlaams
8970;West-Vlanderen;Vlaams
2470;Antwerp;Vlaams
5651;Namur;Wallonie
8510;West-Vlanderen;Vlaams
4470;Liège;Wallonie
6542;Hainaut;Wallonie
4782;Liège;Wallonie
8433;West-Vlanderen;Vlaams
5377;Namur;Wallonie
3910;Limburg;Vlaams
9570;Oost-Vlanderen;Vlaams
9506;Oost-Vlanderen;Vlaams
4861;Liège;Wallonie
5140;Namur;Wallonie
9140;Oost-Vlanderen;Vlaams
1760;Vlaams-Brabant;Vlaams
7520;Hainaut;Wallonie
4670;Liège;Wallonie
4577;Liège;Wallonie
8908;West-Vlanderen;Vlaams
2350;Antwerp;Vlaams
7784;Hainaut;Wallonie
3118;Vlaams-Brabant;Vlaams
5100;Namur;Wallonie
7904;Hainaut;Wallonie
6860;Luxembourg;Wallonie
4690;Liège;Wallonie
4520;Liège;Wallonie
2050;Antwerp;Vlaams
6700;Luxembourg;Wallonie
7040;Hainaut;Wallonie
8580;West-Vlanderen;Vlaams
8600;West-Vlanderen;Vlaams
6987;Luxembourg;Wallonie
7320;Hainaut;Wallonie
3950;Limburg;Vlaams
4250;Liège;Wallonie
4653;Liège;Wallonie
9820;Oost-Vlanderen;Vlaams
1470;Brabant Wallon;Wallonie
7141;Hainaut;Wallonie
1450;Brabant Wallon;Wallonie
6880;Luxembourg;Wallonie
9200;Oost-Vlanderen;Vlaams
8740;West-Vlanderen;Vlaams
9620;Oost-Vlanderen;Vlaams
2520;Antwerp;Vlaams
9420;Oost-Vlanderen;Vlaams
5020;Namur;Wallonie
4540;Liège;Wallonie
5572;Namur;Wallonie
6800;Luxembourg;Wallonie
5500;Namur;Wallonie
7530;Hainaut;Wallonie
5024;Namur;Wallonie
8570;West-Vlanderen;Vlaams
2280;Antwerp;Vlaams
6723;Luxembourg;Wallonie
4357;Liège;Wallonie
5540;Namur;Wallonie
7021;Hainaut;Wallonie
3740;Limburg;Vlaams
2620;Antwerp;Vlaams
4682;Liège;Wallonie
9667;Oost-Vlanderen;Vlaams
3530;Limburg;Vlaams
9750;Oost-Vlanderen;Vlaams
5560;Namur;Wallonie
1540;Vlaams-Brabant;Vlaams
4217;Liège;Wallonie
1350;Brabant Wallon;Wallonie
1910;Vlaams-Brabant;Vlaams
8510;West-Vlanderen;Vlaams
3470;Vlaams-Brabant;Vlaams
4910;Liège;Wallonie
5580;Namur;Wallonie
1755;Vlaams-Brabant;Vlaams
2811;Antwerp;Vlaams
8810;West-Vlanderen;Vlaams
5140;Namur;Wallonie
9680;Oost-Vlanderen;Vlaams
6120;Hainaut;Wallonie
5380;Namur;Wallonie
2880;Antwerp;Vlaams
7050;Hainaut;Wallonie
2328;Antwerp;Vlaams
8377;West-Vlanderen;Vlaams
2330;Antwerp;Vlaams
9400;Oost-Vlanderen;Vlaams
9771;Oost-Vlanderen;Vlaams
4347;Liège;Wallonie
4300;Liège;Wallonie
8600;West-Vlanderen;Vlaams
3870;Limburg;Vlaams
6880;Luxembourg;Wallonie
1350;Brabant Wallon;Wallonie
3040;Vlaams-Brabant;Vlaams
3321;Vlaams-Brabant;Vlaams
7322;Hainaut;Wallonie
4610;Liège;Wallonie
1367;Brabant Wallon;Wallonie
7804;Hainaut;Wallonie
5580;Namur;Wallonie
4120;Liège;Wallonie
9630;Oost-Vlanderen;Vlaams
5190;Namur;Wallonie
1370;Brabant Wallon;Wallonie
5300;Namur;Wallonie
8730;West-Vlanderen;Vlaams
9042;Oost-Vlanderen;Vlaams
1750;Vlaams-Brabant;Vlaams
5340;Namur;Wallonie
5590;Namur;Wallonie
6997;Luxembourg;Wallonie
2460;Antwerp;Vlaams
5600;Namur;Wallonie
9890;Oost-Vlanderen;Vlaams
9250;Oost-Vlanderen;Vlaams
4980;Liège;Wallonie
1170;Brussels;Brussels Capital
2390;Antwerp;Vlaams
9550;Oost-Vlanderen;Vlaams
8600;West-Vlanderen;Vlaams
9750;Oost-Vlanderen;Vlaams
4540;Liège;Wallonie
5537;Namur;Wallonie
4160;Liège;Wallonie
9200;Oost-Vlanderen;Vlaams
4671;Liège;Wallonie
2340;Antwerp;Vlaams
2830;Antwerp;Vlaams
2820;Antwerp;Vlaams
1761;Vlaams-Brabant;Vlaams
2520;Antwerp;Vlaams
7620;Hainaut;Wallonie
1785;Vlaams-Brabant;Vlaams
7602;Hainaut;Wallonie
4032;Liège;Wallonie
4170;Liège;Wallonie
6120;Hainaut;Wallonie
3650;Limburg;Vlaams
9031;Oost-Vlanderen;Vlaams
7910;Hainaut;Wallonie
5580;Namur;Wallonie
5500;Namur;Wallonie
6637;Luxembourg;Wallonie
4367;Liège;Wallonie
5524;Namur;Wallonie
3300;Vlaams-Brabant;Vlaams
4360;Liège;Wallonie
7830;Hainaut;Wallonie
5640;Namur;Wallonie
3990;Limburg;Vlaams
6720;Luxembourg;Wallonie
6120;Hainaut;Wallonie
2220;Antwerp;Vlaams
4802;Liège;Wallonie
4162;Liège;Wallonie
6780;Luxembourg;Wallonie
5570;Namur;Wallonie
7022;Hainaut;Wallonie
2222;Antwerp;Vlaams
5600;Namur;Wallonie
2950;Antwerp;Vlaams
3510;Limburg;Vlaams
3945;Limburg;Vlaams
9690;Oost-Vlanderen;Vlaams
3400;Vlaams-Brabant;Vlaams
1380;Brabant Wallon;Wallonie
6860;Luxembourg;Wallonie
7870;Hainaut;Wallonie
1630;Vlaams-Brabant;Vlaams
9680;Oost-Vlanderen;Vlaams
5575;Namur;Wallonie
7170;Hainaut;Wallonie
4570;Liège;Wallonie
5032;Namur;Wallonie
6211;Hainaut;Wallonie
9850;Oost-Vlanderen;Vlaams
8340;West-Vlanderen;Vlaams
3640;Limburg;Vlaams
5621;Namur;Wallonie
5620;Namur;Wallonie
4190;Liège;Wallonie
4550;Liège;Wallonie
5670;Namur;Wallonie
5600;Namur;Wallonie
9790;Oost-Vlanderen;Vlaams
9255;Oost-Vlanderen;Vlaams
3630;Limburg;Vlaams
9290;Oost-Vlanderen;Vlaams
3400;Vlaams-Brabant;Vlaams
1820;Vlaams-Brabant;Vlaams
7090;Hainaut;Wallonie
7181;Hainaut;Wallonie
6240;Hainaut;Wallonie
2230;Antwerp;Vlaams
4000;Liège;Wallonie
2870;Antwerp;Vlaams
3390;Vlaams-Brabant;Vlaams
5630;Namur;Wallonie
4950;Liège;Wallonie
4280;Liège;Wallonie
5651;Namur;Wallonie
3150;Vlaams-Brabant;Vlaams
1570;Vlaams-Brabant;Vlaams
8820;West-Vlanderen;Vlaams
3832;Limburg;Vlaams
7536;Hainaut;Wallonie
5060;Namur;Wallonie
5575;Namur;Wallonie
2240;Antwerp;Vlaams
4340;Liège;Wallonie
5550;Namur;Wallonie
8720;West-Vlanderen;Vlaams
3400;Vlaams-Brabant;Vlaams
5310;Namur;Wallonie
8300;West-Vlanderen;Vlaams
3501;Limburg;Vlaams
8630;West-Vlanderen;Vlaams
8680;West-Vlanderen;Vlaams
9240;Oost-Vlanderen;Vlaams
9690;Oost-Vlanderen;Vlaams
5670;Namur;Wallonie
1860;Vlaams-Brabant;Vlaams
9700;Oost-Vlanderen;Vlaams
1370;Brabant Wallon;Wallonie
4520;Liège;Wallonie
6592;Hainaut;Wallonie
7542;Hainaut;Wallonie
5190;Namur;Wallonie
5300;Namur;Wallonie
3221;Vlaams-Brabant;Vlaams
7387;Hainaut;Wallonie
1315;Brabant Wallon;Wallonie
4360;Liège;Wallonie
4577;Liège;Wallonie
5575;Namur;Wallonie
7760;Hainaut;Wallonie
8972;West-Vlanderen;Vlaams
2242;Antwerp;Vlaams
1430;Brabant Wallon;Wallonie
5081;Namur;Wallonie
5575;Namur;Wallonie
2970;Antwerp;Vlaams
2900;Antwerp;Vlaams
8554;West-Vlanderen;Vlaams
6920;Luxembourg;Wallonie
3510;Limburg;Vlaams
9140;Oost-Vlanderen;Vlaams
3080;Vlaams-Brabant;Vlaams
7350;Hainaut;Wallonie
7971;Hainaut;Wallonie
5621;Namur;Wallonie
4420;Liège;Wallonie
6637;Luxembourg;Wallonie
6941;Luxembourg;Wallonie
1180;Brussels;Brussels Capital
7812;Hainaut;Wallonie
5570;Namur;Wallonie
3080;Vlaams-Brabant;Vlaams
9185;Oost-Vlanderen;Vlaams
6920;Luxembourg;Wallonie
7620;Hainaut;Wallonie
6666;Luxembourg;Wallonie
7608;Hainaut;Wallonie
1861;Vlaams-Brabant;Vlaams
8470;West-Vlanderen;Vlaams
4540;Liège;Wallonie
2018;Antwerp;Vlaams
5170;Namur;Wallonie
7910;Hainaut;Wallonie
4280;Liège;Wallonie
9860;Oost-Vlanderen;Vlaams
3870;Limburg;Vlaams
9150;Oost-Vlanderen;Vlaams
9120;Oost-Vlanderen;Vlaams
8904;West-Vlanderen;Vlaams
9552;Oost-Vlanderen;Vlaams
5575;Namur;Wallonie
1420;Brabant Wallon;Wallonie
2960;Antwerp;Vlaams
3960;Limburg;Vlaams
1501;Vlaams-Brabant;Vlaams
7870;Hainaut;Wallonie
5560;Namur;Wallonie
7910;Hainaut;Wallonie
1490;Brabant Wallon;Wallonie
5680;Namur;Wallonie
6972;Luxembourg;Wallonie
9940;Oost-Vlanderen;Vlaams
9680;Oost-Vlanderen;Vlaams
5600;Namur;Wallonie
4317;Liège;Wallonie
1570;Vlaams-Brabant;Vlaams
9050;Oost-Vlanderen;Vlaams
4834;Liège;Wallonie
5030;Namur;Wallonie
6560;Hainaut;Wallonie
1702;Vlaams-Brabant;Vlaams
5555;Namur;Wallonie
6950;Luxembourg;Wallonie
3870;Limburg;Vlaams
3717;Limburg;Vlaams
9550;Oost-Vlanderen;Vlaams
1701;Vlaams-Brabant;Vlaams
3381;Vlaams-Brabant;Vlaams
8420;West-Vlanderen;Vlaams
3840;Limburg;Vlaams
8972;West-Vlanderen;Vlaams
7080;Hainaut;Wallonie
1310;Brabant Wallon;Wallonie
6567;Hainaut;Wallonie
6821;Luxembourg;Wallonie
7890;Hainaut;Wallonie
6220;Hainaut;Wallonie
4000;Liège;Wallonie
2040;Antwerp;Vlaams
1348;Brabant Wallon;Wallonie
2240;Antwerp;Vlaams
5372;Namur;Wallonie
3391;Vlaams-Brabant;Vlaams
6769;Luxembourg;Wallonie
9090;Oost-Vlanderen;Vlaams
9120;Oost-Vlanderen;Vlaams
4837;Liège;Wallonie
5560;Namur;Wallonie
6031;Hainaut;Wallonie
7350;Hainaut;Wallonie
4850;Liège;Wallonie
9810;Oost-Vlanderen;Vlaams
3350;Vlaams-Brabant;Vlaams
3350;Vlaams-Brabant;Vlaams
5520;Namur;Wallonie
9340;Oost-Vlanderen;Vlaams
3300;Vlaams-Brabant;Vlaams
3050;Vlaams-Brabant;Vlaams
7540;Hainaut;Wallonie
8647;West-Vlanderen;Vlaams
3202;Vlaams-Brabant;Vlaams
4347;Liège;Wallonie
9932;Oost-Vlanderen;Vlaams
3650;Limburg;Vlaams
8020;West-Vlanderen;Vlaams
3400;Vlaams-Brabant;Vlaams
5640;Namur;Wallonie
5600;Namur;Wallonie
5361;Namur;Wallonie
6596;Hainaut;Wallonie
9630;Oost-Vlanderen;Vlaams
7032;Hainaut;Wallonie
4970;Liège;Wallonie
7110;Hainaut;Wallonie
1402;Brabant Wallon;Wallonie
4263;Liège;Wallonie
6741;Luxembourg;Wallonie
4537;Liège;Wallonie
3370;Vlaams-Brabant;Vlaams
2880;Antwerp;Vlaams
6940;Luxembourg;Wallonie
3730;Limburg;Vlaams
9260;Oost-Vlanderen;Vlaams
3700;Limburg;Vlaams
3670;Limburg;Vlaams
5530;Namur;Wallonie
3520;Limburg;Vlaams
3930;Limburg;Vlaams
1790;Vlaams-Brabant;Vlaams
1070;Brussels;Brussels Capital
6890;Luxembourg;Wallonie
3271;Vlaams-Brabant;Vlaams
9200;Oost-Vlanderen;Vlaams
2490;Antwerp;Vlaams
5570;Namur;Wallonie
7534;Hainaut;Wallonie
4520;Liège;Wallonie
6500;Hainaut;Wallonie
1730;Vlaams-Brabant;Vlaams
5030;Namur;Wallonie
2560;Antwerp;Vlaams
6543;Hainaut;Wallonie
3850;Limburg;Vlaams
8501;West-Vlanderen;Vlaams
1325;Brabant Wallon;Wallonie
3190;Vlaams-Brabant;Vlaams
4300;Liège;Wallonie
7604;Hainaut;Wallonie
4750;Liège;Wallonie
4317;Liège;Wallonie
5650;Namur;Wallonie
4180;Liège;Wallonie
5020;Namur;Wallonie
4590;Liège;Wallonie
8906;West-Vlanderen;Vlaams
7760;Hainaut;Wallonie
6220;Hainaut;Wallonie
5650;Namur;Wallonie
7830;Hainaut;Wallonie
5504;Namur;Wallonie
5380;Namur;Wallonie
7040;Hainaut;Wallonie
9500;Oost-Vlanderen;Vlaams
4000;Liège;Wallonie
7100;Hainaut;Wallonie
6922;Luxembourg;Wallonie
6700;Luxembourg;Wallonie
9310;Oost-Vlanderen;Vlaams
8020;West-Vlanderen;Vlaams
3640;Limburg;Vlaams
8300;West-Vlanderen;Vlaams
4560;Liège;Wallonie
6953;Luxembourg;Wallonie
6890;Luxembourg;Wallonie
4987;Liège;Wallonie
1360;Brabant Wallon;Wallonie
5530;Namur;Wallonie
3511;Limburg;Vlaams
8600;West-Vlanderen;Vlaams
9860;Oost-Vlanderen;Vlaams
8920;West-Vlanderen;Vlaams
3700;Limburg;Vlaams
8600;West-Vlanderen;Vlaams
9400;Oost-Vlanderen;Vlaams
7534;Hainaut;Wallonie
9820;Oost-Vlanderen;Vlaams
9992;Oost-Vlanderen;Vlaams
3891;Limburg;Vlaams
1730;Vlaams-Brabant;Vlaams
4607;Liège;Wallonie
6660;Luxembourg;Wallonie
5100;Namur;Wallonie
1910;Vlaams-Brabant;Vlaams
7862;Hainaut;Wallonie
4540;Liège;Wallonie
9968;Oost-Vlanderen;Vlaams
3350;Vlaams-Brabant;Vlaams
1340;Brabant Wallon;Wallonie
7640;Hainaut;Wallonie
6230;Hainaut;Wallonie
4350;Liège;Wallonie
6927;Luxembourg;Wallonie
5080;Namur;Wallonie
1640;Vlaams-Brabant;Vlaams
7500;Hainaut;Wallonie
9688;Oost-Vlanderen;Vlaams
9890;Oost-Vlanderen;Vlaams
8710;West-Vlanderen;Vlaams
9520;Oost-Vlanderen;Vlaams
9940;Oost-Vlanderen;Vlaams
3650;Limburg;Vlaams
3511;Limburg;Vlaams
6813;Luxembourg;Wallonie
6680;Luxembourg;Wallonie
6767;Luxembourg;Wallonie
4980;Liège;Wallonie
8370;West-Vlanderen;Vlaams
8210;West-Vlanderen;Vlaams
7120;Hainaut;Wallonie
3870;Limburg;Vlaams
4530;Liège;Wallonie
1460;Brabant Wallon;Wallonie
3770;Limburg;Vlaams
7971;Hainaut;Wallonie
3401;Vlaams-Brabant;Vlaams
1741;Vlaams-Brabant;Vlaams
9988;Oost-Vlanderen;Vlaams
1300;Brabant Wallon;Wallonie
2235;Antwerp;Vlaams
3271;Vlaams-Brabant;Vlaams
2980;Antwerp;Vlaams
4317;Liège;Wallonie
4770;Liège;Wallonie
6150;Hainaut;Wallonie
4821;Liège;Wallonie
5537;Namur;Wallonie
9404;Oost-Vlanderen;Vlaams
7387;Hainaut;Wallonie
4880;Liège;Wallonie
1160;Brussels;Brussels Capital
7331;Hainaut;Wallonie
1401;Brabant Wallon;Wallonie
3580;Limburg;Vlaams
4831;Liège;Wallonie
1367;Brabant Wallon;Wallonie
8450;West-Vlanderen;Vlaams
3380;Vlaams-Brabant;Vlaams
6230;Hainaut;Wallonie
4367;Liège;Wallonie
3700;Limburg;Vlaams
9630;Oost-Vlanderen;Vlaams
3650;Limburg;Vlaams
9700;Oost-Vlanderen;Vlaams
8480;West-Vlanderen;Vlaams
9140;Oost-Vlanderen;Vlaams
9420;Oost-Vlanderen;Vlaams
4950;Liège;Wallonie
4190;Liège;Wallonie
5620;Namur;Wallonie
7911;Hainaut;Wallonie
5030;Namur;Wallonie
5680;Namur;Wallonie
9090;Oost-Vlanderen;Vlaams
3800;Limburg;Vlaams
6782;Luxembourg;Wallonie
7911;Hainaut;Wallonie
5351;Namur;Wallonie
4180;Liège;Wallonie
8551;West-Vlanderen;Vlaams
2801;Antwerp;Vlaams
4480;Liège;Wallonie
7911;Hainaut;Wallonie
8501;West-Vlanderen;Vlaams
2880;Antwerp;Vlaams
3390;Vlaams-Brabant;Vlaams
1654;Vlaams-Brabant;Vlaams
3800;Limburg;Vlaams
5080;Namur;Wallonie
6767;Luxembourg;Wallonie
8340;West-Vlanderen;Vlaams
9340;Oost-Vlanderen;Vlaams
3061;Vlaams-Brabant;Vlaams
1750;Vlaams-Brabant;Vlaams
4280;Liège;Wallonie
4360;Liège;Wallonie
9930;Oost-Vlanderen;Vlaams
3545;Limburg;Vlaams
5310;Namur;Wallonie
7700;Hainaut;Wallonie
7812;Hainaut;Wallonie
6810;Luxembourg;Wallonie
3770;Limburg;Vlaams
3870;Limburg;Vlaams
3700;Limburg;Vlaams
2430;Antwerp;Vlaams
9280;Oost-Vlanderen;Vlaams
2890;Antwerp;Vlaams
6042;Hainaut;Wallonie
8570;West-Vlanderen;Vlaams
3460;Vlaams-Brabant;Vlaams
5580;Namur;Wallonie
9690;Oost-Vlanderen;Vlaams
6531;Hainaut;Wallonie
4607;Liège;Wallonie
5021;Namur;Wallonie
5032;Namur;Wallonie
6927;Luxembourg;Wallonie
6743;Luxembourg;Wallonie
5550;Namur;Wallonie
7160;Hainaut;Wallonie
4537;Liège;Wallonie
6810;Luxembourg;Wallonie
9170;Oost-Vlanderen;Vlaams
5310;Namur;Wallonie
3740;Limburg;Vlaams
9790;Oost-Vlanderen;Vlaams
4053;Liège;Wallonie
4800;Liège;Wallonie
6441;Hainaut;Wallonie
7080;Hainaut;Wallonie
4607;Liège;Wallonie
4347;Liège;Wallonie
4181;Liège;Wallonie
5650;Namur;Wallonie
4347;Liège;Wallonie
5651;Namur;Wallonie
6940;Luxembourg;Wallonie
3723;Limburg;Vlaams
1320;Brabant Wallon;Wallonie
6767;Luxembourg;Wallonie
8340;West-Vlanderen;Vlaams
3471;Vlaams-Brabant;Vlaams
7110;Hainaut;Wallonie
8900;West-Vlanderen;Vlaams
1745;Vlaams-Brabant;Vlaams
6567;Hainaut;Wallonie
4280;Liège;Wallonie
6780;Luxembourg;Wallonie
7942;Hainaut;Wallonie
7070;Hainaut;Wallonie
5361;Namur;Wallonie
3294;Vlaams-Brabant;Vlaams
1367;Brabant Wallon;Wallonie
7812;Hainaut;Wallonie
2812;Antwerp;Vlaams
3400;Vlaams-Brabant;Vlaams
3700;Limburg;Vlaams
3850;Limburg;Vlaams
8800;West-Vlanderen;Vlaams
5350;Namur;Wallonie
3960;Limburg;Vlaams
8582;West-Vlanderen;Vlaams
7134;Hainaut;Wallonie
9790;Oost-Vlanderen;Vlaams
8647;West-Vlanderen;Vlaams
4171;Liège;Wallonie
6464;Hainaut;Wallonie
8755;West-Vlanderen;Vlaams
3803;Limburg;Vlaams
5002;Namur;Wallonie
6982;Luxembourg;Wallonie
9982;Oost-Vlanderen;Vlaams
2960;Antwerp;Vlaams
6470;Hainaut;Wallonie
8433;West-Vlanderen;Vlaams
5680;Namur;Wallonie
1933;Vlaams-Brabant;Vlaams
6970;Luxembourg;Wallonie
2830;Antwerp;Vlaams
3700;Limburg;Vlaams
4530;Liège;Wallonie
9130;Oost-Vlanderen;Vlaams
6230;Hainaut;Wallonie
7812;Hainaut;Wallonie
6941;Luxembourg;Wallonie
9800;Oost-Vlanderen;Vlaams
5680;Namur;Wallonie
7131;Hainaut;Wallonie
3830;Limburg;Vlaams
3401;Vlaams-Brabant;Vlaams
7370;Hainaut;Wallonie
8980;West-Vlanderen;Vlaams
9080;Oost-Vlanderen;Vlaams
3806;Limburg;Vlaams
4190;Liège;Wallonie
1495;Brabant Wallon;Wallonie
1457;Brabant Wallon;Wallonie
9700;Oost-Vlanderen;Vlaams
3111;Vlaams-Brabant;Vlaams
8210;West-Vlanderen;Vlaams
1430;Brabant Wallon;Wallonie
4730;Liège;Wallonie
1880;Vlaams-Brabant;Vlaams
4690;Liège;Wallonie
4257;Liège;Wallonie
3870;Limburg;Vlaams
5620;Namur;Wallonie
4851;Liège;Wallonie
7973;Hainaut;Wallonie
8691;West-Vlanderen;Vlaams
5600;Namur;Wallonie
4557;Liège;Wallonie
1480;Brabant Wallon;Wallonie
3054;Vlaams-Brabant;Vlaams
9300;Oost-Vlanderen;Vlaams
5060;Namur;Wallonie
5330;Namur;Wallonie
7380;Hainaut;Wallonie
7870;Hainaut;Wallonie
9520;Oost-Vlanderen;Vlaams
3960;Limburg;Vlaams
3540;Limburg;Vlaams
2600;Antwerp;Vlaams
8791;West-Vlanderen;Vlaams
4460;Liège;Wallonie
5542;Namur;Wallonie
7603;Hainaut;Wallonie
3631;Limburg;Vlaams
3840;Limburg;Vlaams
2880;Antwerp;Vlaams
2150;Antwerp;Vlaams
2288;Antwerp;Vlaams
7133;Hainaut;Wallonie
4257;Liège;Wallonie
9800;Oost-Vlanderen;Vlaams
5310;Namur;Wallonie
7050;Hainaut;Wallonie
4700;Liège;Wallonie
7387;Hainaut;Wallonie
6686;Luxembourg;Wallonie
3792;Limburg;Vlaams
7040;Hainaut;Wallonie
4460;Liège;Wallonie
9506;Oost-Vlanderen;Vlaams
5340;Namur;Wallonie
9450;Oost-Vlanderen;Vlaams
7522;Hainaut;Wallonie
8690;West-Vlanderen;Vlaams
7812;Hainaut;Wallonie
1851;Vlaams-Brabant;Vlaams
1460;Brabant Wallon;Wallonie
8870;West-Vlanderen;Vlaams
5100;Namur;Wallonie
8700;West-Vlanderen;Vlaams
3950;Limburg;Vlaams
3360;Vlaams-Brabant;Vlaams
3400;Vlaams-Brabant;Vlaams
3970;Limburg;Vlaams
6500;Hainaut;Wallonie
4020;Liège;Wallonie
3210;Vlaams-Brabant;Vlaams
2547;Antwerp;Vlaams
5501;Namur;Wallonie
2990;Antwerp;Vlaams
3920;Limburg;Vlaams
3360;Vlaams-Brabant;Vlaams
8510;West-Vlanderen;Vlaams
9800;Oost-Vlanderen;Vlaams
4633;Liège;Wallonie
6860;Luxembourg;Wallonie
5560;Namur;Wallonie
3870;Limburg;Vlaams
6540;Hainaut;Wallonie
6061;Hainaut;Wallonie
6750;Luxembourg;Wallonie
9403;Oost-Vlanderen;Vlaams
4120;Liège;Wallonie
1457;Brabant Wallon;Wallonie
7020;Hainaut;Wallonie
2390;Antwerp;Vlaams
9750;Oost-Vlanderen;Vlaams
5352;Namur;Wallonie
6692;Luxembourg;Wallonie
5550;Namur;Wallonie
5544;Namur;Wallonie
2030;Antwerp;Vlaams
9400;Oost-Vlanderen;Vlaams
7382;Hainaut;Wallonie
1367;Brabant Wallon;Wallonie
3130;Vlaams-Brabant;Vlaams
9881;Oost-Vlanderen;Vlaams
7903;Hainaut;Wallonie
4210;Liège;Wallonie
5020;Namur;Wallonie
7063;Hainaut;Wallonie
6838;Luxembourg;Wallonie
8600;West-Vlanderen;Vlaams
5363;Namur;Wallonie
4480;Liège;Wallonie
1350;Brabant Wallon;Wallonie
6997;Luxembourg;Wallonie
5030;Namur;Wallonie
9420;Oost-Vlanderen;Vlaams
5522;Namur;Wallonie
7181;Hainaut;Wallonie
7910;Hainaut;Wallonie
8940;West-Vlanderen;Vlaams
2590;Antwerp;Vlaams
5340;Namur;Wallonie
1473;Brabant Wallon;Wallonie
3803;Limburg;Vlaams
6670;Luxembourg;Wallonie
9800;Oost-Vlanderen;Vlaams
2980;Antwerp;Vlaams
2540;Antwerp;Vlaams
9472;Oost-Vlanderen;Vlaams
6810;Luxembourg;Wallonie
4101;Liège;Wallonie
5190;Namur;Wallonie
7620;Hainaut;Wallonie
7540;Hainaut;Wallonie
8600;West-Vlanderen;Vlaams
3840;Limburg;Vlaams
4701;Liège;Wallonie
9690;Oost-Vlanderen;Vlaams
6464;Hainaut;Wallonie
5580;Namur;Wallonie
2870;Antwerp;Vlaams
7812;Hainaut;Wallonie
6238;Hainaut;Wallonie
7810;Hainaut;Wallonie
5573;Namur;Wallonie
7640;Hainaut;Wallonie
3078;Vlaams-Brabant;Vlaams
4770;Liège;Wallonie
2400;Antwerp;Vlaams
7543;Hainaut;Wallonie
5190;Namur;Wallonie
9700;Oost-Vlanderen;Vlaams
6750;Luxembourg;Wallonie
1357;Brabant Wallon;Wallonie
3040;Vlaams-Brabant;Vlaams
3668;Limburg;Vlaams
9100;Oost-Vlanderen;Vlaams
9630;Oost-Vlanderen;Vlaams
3990;Limburg;Vlaams
1670;Vlaams-Brabant;Vlaams
2380;Antwerp;Vlaams
1430;Brabant Wallon;Wallonie
7134;Hainaut;Wallonie
6210;Hainaut;Wallonie
5575;Namur;Wallonie
5600;Namur;Wallonie
5600;Namur;Wallonie
3732;Limburg;Vlaams
5300;Namur;Wallonie
9040;Oost-Vlanderen;Vlaams
9340;Oost-Vlanderen;Vlaams
8470;West-Vlanderen;Vlaams
6500;Hainaut;Wallonie
7070;Hainaut;Wallonie
6500;Hainaut;Wallonie
8700;West-Vlanderen;Vlaams
3390;Vlaams-Brabant;Vlaams
3960;Limburg;Vlaams
7500;Hainaut;Wallonie
2300;Antwerp;Vlaams
7120;Hainaut;Wallonie
6890;Luxembourg;Wallonie
5580;Namur;Wallonie
3721;Limburg;Vlaams
9400;Oost-Vlanderen;Vlaams
3630;Limburg;Vlaams
3401;Vlaams-Brabant;Vlaams
4300;Liège;Wallonie
8940;West-Vlanderen;Vlaams
2260;Antwerp;Vlaams
3018;Vlaams-Brabant;Vlaams
8431;West-Vlanderen;Vlaams
2160;Antwerp;Vlaams
4550;Liège;Wallonie
8400;West-Vlanderen;Vlaams
3800;Limburg;Vlaams
2230;Antwerp;Vlaams
6987;Luxembourg;Wallonie
3746;Limburg;Vlaams
4780;Liège;Wallonie
3791;Limburg;Vlaams
2310;Antwerp;Vlaams
3454;Vlaams-Brabant;Vlaams
9150;Oost-Vlanderen;Vlaams
1703;Vlaams-Brabant;Vlaams
3270;Vlaams-Brabant;Vlaams
6750;Luxembourg;Wallonie
9620;Oost-Vlanderen;Vlaams
5503;Namur;Wallonie
4801;Liège;Wallonie
8600;West-Vlanderen;Vlaams
1740;Vlaams-Brabant;Vlaams
4910;Liège;Wallonie
6230;Hainaut;Wallonie
7904;Hainaut;Wallonie
6183;Hainaut;Wallonie
6960;Luxembourg;Wallonie
6823;Luxembourg;Wallonie
5080;Namur;Wallonie
9921;Oost-Vlanderen;Vlaams
2290;Antwerp;Vlaams
3890;Limburg;Vlaams
5377;Namur;Wallonie
5570;Namur;Wallonie
4280;Liège;Wallonie
7740;Hainaut;Wallonie
8610;West-Vlanderen;Vlaams
8560;West-Vlanderen;Vlaams
2222;Antwerp;Vlaams
5571;Namur;Wallonie
3370;Vlaams-Brabant;Vlaams
7506;Hainaut;Wallonie
1150;Brussels;Brussels Capital
9032;Oost-Vlanderen;Vlaams
4432;Liège;Wallonie
3690;Limburg;Vlaams
2070;Antwerp;Vlaams
4557;Liège;Wallonie
6280;Hainaut;Wallonie
9991;Oost-Vlanderen;Vlaams
2020;Antwerp;Vlaams
5060;Namur;Wallonie
7830;Hainaut;Wallonie
7604;Hainaut;Wallonie
9080;Oost-Vlanderen;Vlaams
8370;West-Vlanderen;Vlaams
6700;Luxembourg;Wallonie
3300;Vlaams-Brabant;Vlaams
9660;Oost-Vlanderen;Vlaams
7940;Hainaut;Wallonie
2070;Antwerp;Vlaams
6460;Hainaut;Wallonie
5590;Namur;Wallonie
1380;Brabant Wallon;Wallonie
4280;Liège;Wallonie
5332;Namur;Wallonie
6860;Luxembourg;Wallonie
1140;Brussels;Brussels Capital
9940;Oost-Vlanderen;Vlaams
4870;Liège;Wallonie
1315;Brabant Wallon;Wallonie
3740;Limburg;Vlaams
3800;Limburg;Vlaams
5190;Namur;Wallonie
3500;Limburg;Vlaams
3440;Vlaams-Brabant;Vlaams
7090;Hainaut;Wallonie
6887;Luxembourg;Wallonie
2270;Antwerp;Vlaams
6984;Luxembourg;Wallonie
3840;Limburg;Vlaams
7387;Hainaut;Wallonie
4460;Liège;Wallonie
8650;West-Vlanderen;Vlaams
6120;Hainaut;Wallonie
1370;Brabant Wallon;Wallonie
1730;Vlaams-Brabant;Vlaams
8670;West-Vlanderen;Vlaams
8500;West-Vlanderen;Vlaams
3840;Limburg;Vlaams
9850;Oost-Vlanderen;Vlaams
5070;Namur;Wallonie
2275;Antwerp;Vlaams
4287;Liège;Wallonie
3040;Vlaams-Brabant;Vlaams
1830;Vlaams-Brabant;Vlaams
5300;Namur;Wallonie
6960;Luxembourg;Wallonie
8650;West-Vlanderen;Vlaams
9200;Oost-Vlanderen;Vlaams
6661;Luxembourg;Wallonie
7911;Hainaut;Wallonie
5340;Namur;Wallonie
5680;Namur;Wallonie
4360;Liège;Wallonie
2360;Antwerp;Vlaams
1600;Vlaams-Brabant;Vlaams
5555;Namur;Wallonie
4280;Liège;Wallonie
7904;Hainaut;Wallonie
4850;Liège;Wallonie
4621;Liège;Wallonie
6044;Hainaut;Wallonie
4606;Liège;Wallonie
6887;Luxembourg;Wallonie
3470;Vlaams-Brabant;Vlaams
9800;Oost-Vlanderen;Vlaams
8690;West-Vlanderen;Vlaams
6887;Luxembourg;Wallonie
5550;Namur;Wallonie
3980;Limburg;Vlaams
3793;Limburg;Vlaams
4791;Liège;Wallonie
3300;Vlaams-Brabant;Vlaams
7760;Hainaut;Wallonie
5300;Namur;Wallonie
6280;Hainaut;Wallonie
7031;Hainaut;Wallonie
4520;Liège;Wallonie
8640;West-Vlanderen;Vlaams
2340;Antwerp;Vlaams
4041;Liège;Wallonie
9950;Oost-Vlanderen;Vlaams
6223;Hainaut;Wallonie
7861;Hainaut;Wallonie
4217;Liège;Wallonie
5523;Namur;Wallonie
8434;West-Vlanderen;Vlaams
3803;Limburg;Vlaams
5575;Namur;Wallonie
9506;Oost-Vlanderen;Vlaams
9500;Oost-Vlanderen;Vlaams
8490;West-Vlanderen;Vlaams
8750;West-Vlanderen;Vlaams
7811;Hainaut;Wallonie
4260;Liège;Wallonie
3128;Vlaams-Brabant;Vlaams
6464;Hainaut;Wallonie
6460;Hainaut;Wallonie
8480;West-Vlanderen;Vlaams
9700;Oost-Vlanderen;Vlaams
5310;Namur;Wallonie
4317;Liège;Wallonie
7300;Hainaut;Wallonie
3370;Vlaams-Brabant;Vlaams
4260;Liège;Wallonie
2870;Antwerp;Vlaams
4790;Liège;Wallonie
7642;Hainaut;Wallonie
1341;Brabant Wallon;Wallonie
5660;Namur;Wallonie
8340;West-Vlanderen;Vlaams
4140;Liège;Wallonie
1370;Brabant Wallon;Wallonie
7972;Hainaut;Wallonie
8600;West-Vlanderen;Vlaams
7730;Hainaut;Wallonie
6820;Luxembourg;Wallonie
4870;Liège;Wallonie
5641;Namur;Wallonie
4851;Liège;Wallonie
1390;Brabant Wallon;Wallonie
7120;Hainaut;Wallonie
6220;Hainaut;Wallonie
8950;West-Vlanderen;Vlaams
1090;Brussels;Brussels Capital
6642;Luxembourg;Wallonie
8572;West-Vlanderen;Vlaams
2460;Antwerp;Vlaams
3700;Limburg;Vlaams
3070;Vlaams-Brabant;Vlaams
4350;Liège;Wallonie
3201;Vlaams-Brabant;Vlaams
9971;Oost-Vlanderen;Vlaams
4317;Liège;Wallonie
6500;Hainaut;Wallonie
1357;Brabant Wallon;Wallonie
8380;West-Vlanderen;Vlaams
7020;Hainaut;Wallonie
9990;Oost-Vlanderen;Vlaams
5660;Namur;Wallonie
7760;Hainaut;Wallonie
6590;Hainaut;Wallonie
6032;Hainaut;Wallonie
2200;Antwerp;Vlaams
7140;Hainaut;Wallonie
7700;Hainaut;Wallonie
1320;Brabant Wallon;Wallonie
2520;Antwerp;Vlaams
8720;West-Vlanderen;Vlaams
7750;Hainaut;Wallonie
4560;Liège;Wallonie
1315;Brabant Wallon;Wallonie
6830;Luxembourg;Wallonie
8972;West-Vlanderen;Vlaams
1370;Brabant Wallon;Wallonie
4550;Liège;Wallonie
4557;Liège;Wallonie
5630;Namur;Wallonie
9051;Oost-Vlanderen;Vlaams
8600;West-Vlanderen;Vlaams
8310;West-Vlanderen;Vlaams
9170;Oost-Vlanderen;Vlaams
1700;Vlaams-Brabant;Vlaams
8490;West-Vlanderen;Vlaams
8630;West-Vlanderen;Vlaams
6511;Hainaut;Wallonie
1853;Vlaams-Brabant;Vlaams
1457;Brabant Wallon;Wallonie
3020;Vlaams-Brabant;Vlaams
4800;Liège;Wallonie
1472;Brabant Wallon;Wallonie
9420;Oost-Vlanderen;Vlaams
1457;Brabant Wallon;Wallonie
4608;Liège;Wallonie
7604;Hainaut;Wallonie
1474;Brabant Wallon;Wallonie
1982;Vlaams-Brabant;Vlaams
2110;Antwerp;Vlaams
1200;Brussels;Brussels Capital
8660;West-Vlanderen;Vlaams
9890;Oost-Vlanderen;Vlaams
6717;Luxembourg;Wallonie
6870;Luxembourg;Wallonie
7784;Hainaut;Wallonie
1852;Vlaams-Brabant;Vlaams
6533;Hainaut;Wallonie
5555;Namur;Wallonie
3052;Vlaams-Brabant;Vlaams
7370;Hainaut;Wallonie
4537;Liège;Wallonie
7170;Hainaut;Wallonie
3840;Limburg;Vlaams
3891;Limburg;Vlaams
4990;Liège;Wallonie
1000;Brussels;Brussels Capital
3440;Vlaams-Brabant;Vlaams
7061;Hainaut;Wallonie
1450;Brabant Wallon;Wallonie
7340;Hainaut;Wallonie
2100;Antwerp;Vlaams
8951;West-Vlanderen;Vlaams
8380;West-Vlanderen;Vlaams
3080;Vlaams-Brabant;Vlaams
7190;Hainaut;Wallonie
4120;Liège;Wallonie
2430;Antwerp;Vlaams
9700;Oost-Vlanderen;Vlaams
1980;Vlaams-Brabant;Vlaams
5101;Namur;Wallonie
8587;West-Vlanderen;Vlaams
5070;Namur;Wallonie
3798;Limburg;Vlaams
5600;Namur;Wallonie
6280;Hainaut;Wallonie
8470;West-Vlanderen;Vlaams
4400;Liège;Wallonie
5530;Namur;Wallonie
9620;Oost-Vlanderen;Vlaams
5555;Namur;Wallonie
2220;Antwerp;Vlaams
5360;Namur;Wallonie
4040;Liège;Wallonie
5563;Namur;Wallonie
9130;Oost-Vlanderen;Vlaams
8581;West-Vlanderen;Vlaams
4141;Liège;Wallonie
5101;Namur;Wallonie
6852;Luxembourg;Wallonie
6030;Hainaut;Wallonie
6747;Luxembourg;Wallonie
8957;West-Vlanderen;Vlaams
4850;Liège;Wallonie
5550;Namur;Wallonie
7332;Hainaut;Wallonie
6717;Luxembourg;Wallonie
6960;Luxembourg;Wallonie
9400;Oost-Vlanderen;Vlaams
1745;Vlaams-Brabant;Vlaams
6983;Luxembourg;Wallonie
7120;Hainaut;Wallonie
9850;Oost-Vlanderen;Vlaams
2382;Antwerp;Vlaams
2580;Antwerp;Vlaams
2870;Antwerp;Vlaams
3840;Limburg;Vlaams
7350;Hainaut;Wallonie
7712;Hainaut;Wallonie
5377;Namur;Wallonie
6637;Luxembourg;Wallonie
3870;Limburg;Vlaams
6660;Luxembourg;Wallonie
5560;Namur;Wallonie
9630;Oost-Vlanderen;Vlaams
5354;Namur;Wallonie
5570;Namur;Wallonie
8600;West-Vlanderen;Vlaams
3293;Vlaams-Brabant;Vlaams
8851;West-Vlanderen;Vlaams
7800;Hainaut;Wallonie
6681;Luxembourg;Wallonie
4250;Liège;Wallonie
2460;Antwerp;Vlaams
6500;Hainaut;Wallonie
8460;West-Vlanderen;Vlaams
4140;Liège;Wallonie
7750;Hainaut;Wallonie
6870;Luxembourg;Wallonie
6762;Luxembourg;Wallonie
7030;Hainaut;Wallonie
7080;Hainaut;Wallonie
3270;Vlaams-Brabant;Vlaams
5521;Namur;Wallonie
6560;Hainaut;Wallonie
4163;Liège;Wallonie
6536;Hainaut;Wallonie
6717;Luxembourg;Wallonie
6833;Luxembourg;Wallonie
5020;Namur;Wallonie
4460;Liège;Wallonie
8570;West-Vlanderen;Vlaams
7070;Hainaut;Wallonie
5600;Namur;Wallonie
4451;Liège;Wallonie
4570;Liège;Wallonie
8020;West-Vlanderen;Vlaams
2550;Antwerp;Vlaams
6600;Luxembourg;Wallonie
8610;West-Vlanderen;Vlaams
9520;Oost-Vlanderen;Vlaams
3440;Vlaams-Brabant;Vlaams
8690;West-Vlanderen;Vlaams
6791;Luxembourg;Wallonie
8630;West-Vlanderen;Vlaams
9630;Oost-Vlanderen;Vlaams
6941;Luxembourg;Wallonie
5640;Namur;Wallonie
1440;Brabant Wallon;Wallonie
5300;Namur;Wallonie
9450;Oost-Vlanderen;Vlaams
5537;Namur;Wallonie
8792;West-Vlanderen;Vlaams
9042;Oost-Vlanderen;Vlaams
3290;Vlaams-Brabant;Vlaams
3803;Limburg;Vlaams
4690;Liège;Wallonie
2910;Antwerp;Vlaams
4631;Liège;Wallonie
7170;Hainaut;Wallonie
3790;Limburg;Vlaams
5150;Namur;Wallonie
4250;Liège;Wallonie
2275;Antwerp;Vlaams
1755;Vlaams-Brabant;Vlaams
3840;Limburg;Vlaams
9450;Oost-Vlanderen;Vlaams
6720;Luxembourg;Wallonie
5621;Namur;Wallonie
1130;Brussels;Brussels Capital
6960;Luxembourg;Wallonie
5541;Namur;Wallonie
5543;Namur;Wallonie
2830;Antwerp;Vlaams
1790;Vlaams-Brabant;Vlaams
3530;Limburg;Vlaams
7830;Hainaut;Wallonie
4650;Liège;Wallonie
4671;Liège;Wallonie
8630;West-Vlanderen;Vlaams
8480;West-Vlanderen;Vlaams
8770;West-Vlanderen;Vlaams
6941;Luxembourg;Wallonie
3890;Limburg;Vlaams
2560;Antwerp;Vlaams
8610;West-Vlanderen;Vlaams
8520;West-Vlanderen;Vlaams
8920;West-Vlanderen;Vlaams
1380;Brabant Wallon;Wallonie
3700;Limburg;Vlaams
6900;Luxembourg;Wallonie
9030;Oost-Vlanderen;Vlaams
1350;Brabant Wallon;Wallonie
2450;Antwerp;Vlaams
7822;Hainaut;Wallonie
8760;West-Vlanderen;Vlaams
7141;Hainaut;Wallonie
3890;Limburg;Vlaams
6560;Hainaut;Wallonie
4608;Liège;Wallonie
8620;West-Vlanderen;Vlaams
6851;Luxembourg;Wallonie
9520;Oost-Vlanderen;Vlaams
9420;Oost-Vlanderen;Vlaams
1340;Brabant Wallon;Wallonie
9700;Oost-Vlanderen;Vlaams
3212;Vlaams-Brabant;Vlaams
7600;Hainaut;Wallonie
8970;West-Vlanderen;Vlaams
4350;Liège;Wallonie
5660;Namur;Wallonie
6532;Hainaut;Wallonie
6470;Hainaut;Wallonie
4790;Liège;Wallonie
3700;Limburg;Vlaams
7623;Hainaut;Wallonie
1760;Vlaams-Brabant;Vlaams
6747;Luxembourg;Wallonie
6730;Luxembourg;Wallonie
5600;Namur;Wallonie
8700;West-Vlanderen;Vlaams
6832;Luxembourg;Wallonie
5630;Namur;Wallonie
6640;Luxembourg;Wallonie
9170;Oost-Vlanderen;Vlaams
9980;Oost-Vlanderen;Vlaams
9667;Oost-Vlanderen;Vlaams
1600;Vlaams-Brabant;Vlaams
3800;Limburg;Vlaams
2940;Antwerp;Vlaams
7618;Hainaut;Wallonie
3390;Vlaams-Brabant;Vlaams
1495;Brabant Wallon;Wallonie
2431;Antwerp;Vlaams
3870;Limburg;Vlaams
8902;West-Vlanderen;Vlaams
3740;Limburg;Vlaams
6224;Hainaut;Wallonie
1410;Brabant Wallon;Wallonie
9988;Oost-Vlanderen;Vlaams
4860;Liège;Wallonie
2040;Antwerp;Vlaams
3545;Limburg;Vlaams
1731;Vlaams-Brabant;Vlaams
9620;Oost-Vlanderen;Vlaams
8904;West-Vlanderen;Vlaams
3742;Limburg;Vlaams
9700;Oost-Vlanderen;Vlaams
3670;Limburg;Vlaams
1820;Vlaams-Brabant;Vlaams
6567;Hainaut;Wallonie
7911;Hainaut;Wallonie
5360;Namur;Wallonie
9506;Oost-Vlanderen;Vlaams
7866;Hainaut;Wallonie
4252;Liège;Wallonie
6900;Luxembourg;Wallonie
8340;West-Vlanderen;Vlaams
6852;Luxembourg;Wallonie
4102;Liège;Wallonie
3900;Limburg;Vlaams
4219;Liège;Wallonie
7750;Hainaut;Wallonie
9800;Oost-Vlanderen;Vlaams
9968;Oost-Vlanderen;Vlaams
7532;Hainaut;Wallonie
2580;Antwerp;Vlaams
8691;West-Vlanderen;Vlaams
6690;Luxembourg;Wallonie
9961;Oost-Vlanderen;Vlaams
5081;Namur;Wallonie
7760;Hainaut;Wallonie
4654;Liège;Wallonie
4890;Liège;Wallonie
8890;West-Vlanderen;Vlaams
8630;West-Vlanderen;Vlaams
3590;Limburg;Vlaams
6960;Luxembourg;Wallonie
9130;Oost-Vlanderen;Vlaams
5670;Namur;Wallonie
7191;Hainaut;Wallonie
3630;Limburg;Vlaams
9810;Oost-Vlanderen;Vlaams
3800;Limburg;Vlaams
7743;Hainaut;Wallonie
7120;Hainaut;Wallonie
5500;Namur;Wallonie
5620;Namur;Wallonie
1190;Brussels;Brussels Capital
6440;Hainaut;Wallonie
8980;West-Vlanderen;Vlaams
3770;Limburg;Vlaams
9860;Oost-Vlanderen;Vlaams
9500;Oost-Vlanderen;Vlaams
6030;Hainaut;Wallonie
4030;Liège;Wallonie
8560;West-Vlanderen;Vlaams
6792;Luxembourg;Wallonie
1500;Vlaams-Brabant;Vlaams
3930;Limburg;Vlaams
3730;Limburg;Vlaams
7822;Hainaut;Wallonie
7050;Hainaut;Wallonie
1755;Vlaams-Brabant;Vlaams
2550;Antwerp;Vlaams
7622;Hainaut;Wallonie
1502;Vlaams-Brabant;Vlaams
9820;Oost-Vlanderen;Vlaams
6210;Hainaut;Wallonie
6830;Luxembourg;Wallonie
8647;West-Vlanderen;Vlaams
8210;West-Vlanderen;Vlaams
4600;Liège;Wallonie
1330;Brabant Wallon;Wallonie
6767;Luxembourg;Wallonie
7540;Hainaut;Wallonie
4420;Liège;Wallonie
6460;Hainaut;Wallonie
6680;Luxembourg;Wallonie
1480;Brabant Wallon;Wallonie
5060;Namur;Wallonie
3540;Limburg;Vlaams
6940;Luxembourg;Wallonie
9660;Oost-Vlanderen;Vlaams
3220;Vlaams-Brabant;Vlaams
4450;Liège;Wallonie
6182;Hainaut;Wallonie
1820;Vlaams-Brabant;Vlaams
9190;Oost-Vlanderen;Vlaams
3512;Limburg;Vlaams
4577;Liège;Wallonie
6717;Luxembourg;Wallonie
2260;Antwerp;Vlaams
5670;Namur;Wallonie
5310;Namur;Wallonie
6462;Hainaut;Wallonie
7538;Hainaut;Wallonie
6769;Luxembourg;Wallonie
4453;Liège;Wallonie
6760;Luxembourg;Wallonie
3724;Limburg;Vlaams
9700;Oost-Vlanderen;Vlaams
4711;Liège;Wallonie
6780;Luxembourg;Wallonie
9080;Oost-Vlanderen;Vlaams
1930;Vlaams-Brabant;Vlaams
9840;Oost-Vlanderen;Vlaams
4219;Liège;Wallonie
4031;Liège;Wallonie
4837;Liège;Wallonie
5190;Namur;Wallonie
5370;Namur;Wallonie
8531;West-Vlanderen;Vlaams
8800;West-Vlanderen;Vlaams
1430;Brabant Wallon;Wallonie
5377;Namur;Wallonie
1390;Brabant Wallon;Wallonie
6671;Luxembourg;Wallonie
7903;Hainaut;Wallonie
1450;Brabant Wallon;Wallonie
6673;Luxembourg;Wallonie
7950;Hainaut;Wallonie
4784;Liège;Wallonie
8420;West-Vlanderen;Vlaams
8540;West-Vlanderen;Vlaams
9280;Oost-Vlanderen;Vlaams
9831;Oost-Vlanderen;Vlaams
3941;Limburg;Vlaams
7890;Hainaut;Wallonie
9660;Oost-Vlanderen;Vlaams
7850;Hainaut;Wallonie
7500;Hainaut;Wallonie
6567;Hainaut;Wallonie
7504;Hainaut;Wallonie
6929;Luxembourg;Wallonie
1332;Brabant Wallon;Wallonie
1367;Brabant Wallon;Wallonie
6280;Hainaut;Wallonie
5031;Namur;Wallonie
4650;Liège;Wallonie
7973;Hainaut;Wallonie
6840;Luxembourg;Wallonie
9200;Oost-Vlanderen;Vlaams
7620;Hainaut;Wallonie
6720;Luxembourg;Wallonie
3545;Limburg;Vlaams
3020;Vlaams-Brabant;Vlaams
4351;Liège;Wallonie
3320;Vlaams-Brabant;Vlaams
4250;Liège;Wallonie
4520;Liège;Wallonie
1315;Brabant Wallon;Wallonie
8490;West-Vlanderen;Vlaams
1370;Brabant Wallon;Wallonie
7012;Hainaut;Wallonie
9120;Oost-Vlanderen;Vlaams
8650;West-Vlanderen;Vlaams
4720;Liège;Wallonie
4210;Liège;Wallonie
6111;Hainaut;Wallonie
8930;West-Vlanderen;Vlaams
5670;Namur;Wallonie
6811;Luxembourg;Wallonie
4990;Liège;Wallonie
1342;Brabant Wallon;Wallonie
6688;Luxembourg;Wallonie
6600;Luxembourg;Wallonie
7022;Hainaut;Wallonie
8552;West-Vlanderen;Vlaams
6110;Hainaut;Wallonie
8890;West-Vlanderen;Vlaams
6997;Luxembourg;Wallonie
3891;Limburg;Vlaams
9500;Oost-Vlanderen;Vlaams
9850;Oost-Vlanderen;Vlaams
5310;Namur;Wallonie
7034;Hainaut;Wallonie
5670;Namur;Wallonie
3945;Limburg;Vlaams
3360;Vlaams-Brabant;Vlaams
4680;Liège;Wallonie
7850;Hainaut;Wallonie
9401;Oost-Vlanderen;Vlaams
7760;Hainaut;Wallonie
7390;Hainaut;Wallonie
7972;Hainaut;Wallonie
4287;Liège;Wallonie
4987;Liège;Wallonie
6460;Hainaut;Wallonie
9630;Oost-Vlanderen;Vlaams
8800;West-Vlanderen;Vlaams
7120;Hainaut;Wallonie
9690;Oost-Vlanderen;Vlaams
5070;Namur;Wallonie
9550;Oost-Vlanderen;Vlaams
8900;West-Vlanderen;Vlaams
9100;Oost-Vlanderen;Vlaams
9550;Oost-Vlanderen;Vlaams
5651;Namur;Wallonie
4130;Liège;Wallonie
6700;Luxembourg;Wallonie
4870;Liège;Wallonie
6640;Luxembourg;Wallonie
1800;Vlaams-Brabant;Vlaams
6461;Hainaut;Wallonie
3300;Vlaams-Brabant;Vlaams
9120;Oost-Vlanderen;Vlaams
9506;Oost-Vlanderen;Vlaams
4590;Liège;Wallonie
9473;Oost-Vlanderen;Vlaams
4190;Liège;Wallonie
8954;West-Vlanderen;Vlaams
2610;Antwerp;Vlaams
9060;Oost-Vlanderen;Vlaams
2260;Antwerp;Vlaams
9870;Oost-Vlanderen;Vlaams
8550;West-Vlanderen;Vlaams
8511;West-Vlanderen;Vlaams
3200;Vlaams-Brabant;Vlaams
5590;Namur;Wallonie
6250;Hainaut;Wallonie
7640;Hainaut;Wallonie
7972;Hainaut;Wallonie
7387;Hainaut;Wallonie
6900;Luxembourg;Wallonie
9111;Oost-Vlanderen;Vlaams
4500;Liège;Wallonie
3581;Limburg;Vlaams
4690;Liège;Wallonie
1404;Brabant Wallon;Wallonie
6850;Luxembourg;Wallonie
4987;Liège;Wallonie
5022;Namur;Wallonie
7120;Hainaut;Wallonie
5660;Namur;Wallonie
9160;Oost-Vlanderen;Vlaams
3440;Vlaams-Brabant;Vlaams
1620;Vlaams-Brabant;Vlaams
1653;Vlaams-Brabant;Vlaams
1671;Vlaams-Brabant;Vlaams
7120;Hainaut;Wallonie
5530;Namur;Wallonie
6141;Hainaut;Wallonie
4557;Liège;Wallonie
3800;Limburg;Vlaams
3890;Limburg;Vlaams
7070;Hainaut;Wallonie
6534;Hainaut;Wallonie
7950;Hainaut;Wallonie
3945;Limburg;Vlaams
7321;Hainaut;Wallonie
5540;Namur;Wallonie
1461;Brabant Wallon;Wallonie
8301;West-Vlanderen;Vlaams
9571;Oost-Vlanderen;Vlaams
7090;Hainaut;Wallonie
3191;Vlaams-Brabant;Vlaams
1560;Vlaams-Brabant;Vlaams
8377;West-Vlanderen;Vlaams
9340;Oost-Vlanderen;Vlaams
1370;Brabant Wallon;Wallonie
3010;Vlaams-Brabant;Vlaams
3890;Limburg;Vlaams
7950;Hainaut;Wallonie
9050;Oost-Vlanderen;Vlaams
1300;Brabant Wallon;Wallonie
8647;West-Vlanderen;Vlaams
4710;Liège;Wallonie
1471;Brabant Wallon;Wallonie
6593;Hainaut;Wallonie
5330;Namur;Wallonie
2390;Antwerp;Vlaams
6987;Luxembourg;Wallonie
3630;Limburg;Vlaams
2321;Antwerp;Vlaams
9630;Oost-Vlanderen;Vlaams
8930;West-Vlanderen;Vlaams
2170;Antwerp;Vlaams
7000;Hainaut;Wallonie
9660;Oost-Vlanderen;Vlaams
3620;Limburg;Vlaams
3370;Vlaams-Brabant;Vlaams
8647;West-Vlanderen;Vlaams
5380;Namur;Wallonie
7743;Hainaut;Wallonie
3300;Vlaams-Brabant;Vlaams
2890;Antwerp;Vlaams
5660;Namur;Wallonie
9800;Oost-Vlanderen;Vlaams
5660;Namur;Wallonie
8740;West-Vlanderen;Vlaams
8920;West-Vlanderen;Vlaams
7040;Hainaut;Wallonie
6043;Hainaut;Wallonie
1731;Vlaams-Brabant;Vlaams
3770;Limburg;Vlaams
6830;Luxembourg;Wallonie
8800;West-Vlanderen;Vlaams
7610;Hainaut;Wallonie
5310;Namur;Wallonie
7730;Hainaut;Wallonie
4845;Liège;Wallonie
5070;Namur;Wallonie
6470;Hainaut;Wallonie
3730;Limburg;Vlaams
1600;Vlaams-Brabant;Vlaams
6662;Luxembourg;Wallonie
6840;Luxembourg;Wallonie
6890;Luxembourg;Wallonie
7100;Hainaut;Wallonie
9290;Oost-Vlanderen;Vlaams
4051;Liège;Wallonie
2431;Antwerp;Vlaams
3620;Limburg;Vlaams
9850;Oost-Vlanderen;Vlaams
7390;Hainaut;Wallonie
2275;Antwerp;Vlaams
1970;Vlaams-Brabant;Vlaams
5570;Namur;Wallonie
3722;Limburg;Vlaams
8952;West-Vlanderen;Vlaams
9930;Oost-Vlanderen;Vlaams
3470;Vlaams-Brabant;Vlaams
6800;Luxembourg;Wallonie
2840;Antwerp;Vlaams
1315;Brabant Wallon;Wallonie
6221;Hainaut;Wallonie
6781;Luxembourg;Wallonie
4537;Liège;Wallonie
2890;Antwerp;Vlaams
2860;Antwerp;Vlaams
9981;Oost-Vlanderen;Vlaams
1700;Vlaams-Brabant;Vlaams
1541;Vlaams-Brabant;Vlaams
3700;Limburg;Vlaams
4900;Liège;Wallonie
5530;Namur;Wallonie
4890;Liège;Wallonie
3631;Limburg;Vlaams
6210;Hainaut;Wallonie
8460;West-Vlanderen;Vlaams
3850;Limburg;Vlaams
4652;Liège;Wallonie
4841;Liège;Wallonie
8902;West-Vlanderen;Vlaams
7624;Hainaut;Wallonie
3720;Limburg;Vlaams
4357;Liège;Wallonie
4760;Liège;Wallonie
4990;Liège;Wallonie
4920;Liège;Wallonie
5377;Namur;Wallonie
1670;Vlaams-Brabant;Vlaams
2140;Antwerp;Vlaams
6941;Luxembourg;Wallonie
6440;Hainaut;Wallonie
3870;Limburg;Vlaams
8000;West-Vlanderen;Vlaams
5660;Namur;Wallonie
6222;Hainaut;Wallonie
5650;Namur;Wallonie
4050;Liège;Wallonie
4602;Liège;Wallonie
7780;Hainaut;Wallonie
1435;Brabant Wallon;Wallonie
6010;Hainaut;Wallonie
5562;Namur;Wallonie
6767;Luxembourg;Wallonie
9840;Oost-Vlanderen;Vlaams
7864;Hainaut;Wallonie
3540;Limburg;Vlaams
5350;Namur;Wallonie
5570;Namur;Wallonie
4400;Liège;Wallonie
6060;Hainaut;Wallonie
7830;Hainaut;Wallonie
5310;Namur;Wallonie
3700;Limburg;Vlaams
5537;Namur;Wallonie
5540;Namur;Wallonie
1981;Vlaams-Brabant;Vlaams
6640;Luxembourg;Wallonie
7301;Hainaut;Wallonie
6900;Luxembourg;Wallonie
5032;Namur;Wallonie
3060;Vlaams-Brabant;Vlaams
5550;Namur;Wallonie
6960;Luxembourg;Wallonie
6001;Hainaut;Wallonie
3320;Vlaams-Brabant;Vlaams
5580;Namur;Wallonie
9820;Oost-Vlanderen;Vlaams
6120;Hainaut;Wallonie
3700;Limburg;Vlaams
1880;Vlaams-Brabant;Vlaams
9400;Oost-Vlanderen;Vlaams
6890;Luxembourg;Wallonie
9870;Oost-Vlanderen;Vlaams
9041;Oost-Vlanderen;Vlaams
9931;Oost-Vlanderen;Vlaams
1421;Brabant Wallon;Wallonie
1357;Brabant Wallon;Wallonie
1360;Brabant Wallon;Wallonie
7802;Hainaut;Wallonie
8553;West-Vlanderen;Vlaams
9500;Oost-Vlanderen;Vlaams
7340;Hainaut;Wallonie
9880;Oost-Vlanderen;Vlaams
6929;Luxembourg;Wallonie
5024;Namur;Wallonie
4219;Liège;Wallonie
9310;Oost-Vlanderen;Vlaams
1495;Brabant Wallon;Wallonie
5550;Namur;Wallonie
3770;Limburg;Vlaams
9042;Oost-Vlanderen;Vlaams
3272;Vlaams-Brabant;Vlaams
3461;Vlaams-Brabant;Vlaams
4350;Liège;Wallonie
6674;Luxembourg;Wallonie
9500;Oost-Vlanderen;Vlaams
8400;West-Vlanderen;Vlaams
9860;Oost-Vlanderen;Vlaams
9200;Oost-Vlanderen;Vlaams
3700;Limburg;Vlaams
4287;Liège;Wallonie
6250;Hainaut;Wallonie
6730;Luxembourg;Wallonie
6724;Luxembourg;Wallonie
1060;Brussels;Brussels Capital
6820;Luxembourg;Wallonie
6740;Luxembourg;Wallonie
2223;Antwerp;Vlaams
5590;Namur;Wallonie
9667;Oost-Vlanderen;Vlaams
1750;Vlaams-Brabant;Vlaams
9550;Oost-Vlanderen;Vlaams
6769;Luxembourg;Wallonie
5537;Namur;Wallonie
4630;Liège;Wallonie
1790;Vlaams-Brabant;Vlaams
7901;Hainaut;Wallonie
7533;Hainaut;Wallonie
1360;Brabant Wallon;Wallonie
7830;Hainaut;Wallonie
4500;Liège;Wallonie
6640;Luxembourg;Wallonie
8630;West-Vlanderen;Vlaams
8630;West-Vlanderen;Vlaams
1780;Vlaams-Brabant;Vlaams
8640;West-Vlanderen;Vlaams
9790;Oost-Vlanderen;Vlaams
1370;Brabant Wallon;Wallonie
9880;Oost-Vlanderen;Vlaams
2630;Antwerp;Vlaams
1652;Vlaams-Brabant;Vlaams
2000;Antwerp;Vlaams
9890;Oost-Vlanderen;Vlaams
2387;Antwerp;Vlaams
5555;Namur;Wallonie
6730;Luxembourg;Wallonie
7130;Hainaut;Wallonie
7321;Hainaut;Wallonie
6760;Luxembourg;Wallonie
5170;Namur;Wallonie
5004;Namur;Wallonie
4632;Liège;Wallonie
6000;Hainaut;Wallonie
5650;Namur;Wallonie
5032;Namur;Wallonie
5570;Namur;Wallonie
6940;Luxembourg;Wallonie
5530;Namur;Wallonie
2180;Antwerp;Vlaams
4750;Liège;Wallonie
9700;Oost-Vlanderen;Vlaams
3078;Vlaams-Brabant;Vlaams
4530;Liège;Wallonie
5380;Namur;Wallonie
5575;Namur;Wallonie
8830;West-Vlanderen;Vlaams
5353;Namur;Wallonie
3840;Limburg;Vlaams
4280;Liège;Wallonie
6698;Luxembourg;Wallonie
3870;Limburg;Vlaams
9120;Oost-Vlanderen;Vlaams
3870;Limburg;Vlaams
3700;Limburg;Vlaams
1476;Brabant Wallon;Wallonie
3530;Limburg;Vlaams
8860;West-Vlanderen;Vlaams
4254;Liège;Wallonie
3560;Limburg;Vlaams
3350;Vlaams-Brabant;Vlaams
6840;Luxembourg;Wallonie
3680;Limburg;Vlaams
3971;Limburg;Vlaams
8531;West-Vlanderen;Vlaams
4650;Liège;Wallonie
5060;Namur;Wallonie
9770;Oost-Vlanderen;Vlaams
4800;Liège;Wallonie
8880;West-Vlanderen;Vlaams
1495;Brabant Wallon;Wallonie
9420;Oost-Vlanderen;Vlaams
5310;Namur;Wallonie
6870;Luxembourg;Wallonie
6951;Luxembourg;Wallonie
4651;Liège;Wallonie
7130;Hainaut;Wallonie
6672;Luxembourg;Wallonie
4960;Liège;Wallonie
7970;Hainaut;Wallonie
4607;Liège;Wallonie
3060;Vlaams-Brabant;Vlaams
6687;Luxembourg;Wallonie
3740;Limburg;Vlaams
3740;Limburg;Vlaams
4670;Liège;Wallonie
4280;Liège;Wallonie
5140;Namur;Wallonie
8630;West-Vlanderen;Vlaams
5660;Namur;Wallonie
7803;Hainaut;Wallonie
5590;Namur;Wallonie
5310;Namur;Wallonie
7130;Hainaut;Wallonie
5660;Namur;Wallonie
8630;West-Vlanderen;Vlaams
6742;Luxembourg;Wallonie
6180;Hainaut;Wallonie
5660;Namur;Wallonie
6020;Hainaut;Wallonie
5630;Namur;Wallonie
7912;Hainaut;Wallonie
1700;Vlaams-Brabant;Vlaams
5500;Namur;Wallonie
7370;Hainaut;Wallonie
2570;Antwerp;Vlaams
7190;Hainaut;Wallonie
7370;Hainaut;Wallonie
5080;Namur;Wallonie
7730;Hainaut;Wallonie
4731;Liège;Wallonie
6240;Hainaut;Wallonie
6820;Luxembourg;Wallonie
4340;Liège;Wallonie
7080;Hainaut;Wallonie
1750;Vlaams-Brabant;Vlaams
7943;Hainaut;Wallonie
7906;Hainaut;Wallonie
3620;Limburg;Vlaams
6181;Hainaut;Wallonie
4460;Liège;Wallonie
3053;Vlaams-Brabant;Vlaams
4210;Liège;Wallonie
8530;West-Vlanderen;Vlaams
7022;Hainaut;Wallonie
4771;Liège;Wallonie
3040;Vlaams-Brabant;Vlaams
6880;Luxembourg;Wallonie
5370;Namur;Wallonie
4020;Liège;Wallonie
8956;West-Vlanderen;Vlaams
5101;Namur;Wallonie
6540;Hainaut;Wallonie
6924;Luxembourg;Wallonie
7850;Hainaut;Wallonie
4210;Liège;Wallonie
5600;Namur;Wallonie
5081;Namur;Wallonie
5376;Namur;Wallonie
2322;Antwerp;Vlaams
8560;West-Vlanderen;Vlaams
4280;Liège;Wallonie
5550;Namur;Wallonie
1120;Brussels;Brussels Capital
6717;Luxembourg;Wallonie
6230;Hainaut;Wallonie
5555;Namur;Wallonie
1760;Vlaams-Brabant;Vlaams
9700;Oost-Vlanderen;Vlaams
8020;West-Vlanderen;Vlaams
4452;Liège;Wallonie
1760;Vlaams-Brabant;Vlaams
5650;Namur;Wallonie
3700;'S Herenelderen;Oui
4432;Liège;Wallonie
8850;West-Vlanderen;Vlaams
6600;Luxembourg;Wallonie
5001;Namur;Wallonie
3360;Vlaams-Brabant;Vlaams
1547;Vlaams-Brabant;Vlaams
8920;West-Vlanderen;Vlaams
7783;Hainaut;Wallonie
6921;Luxembourg;Wallonie
7521;Hainaut;Wallonie
4400;Liège;Wallonie
9570;Oost-Vlanderen;Vlaams
8720;West-Vlanderen;Vlaams
7050;Hainaut;Wallonie
3400;Vlaams-Brabant;Vlaams
7120;Hainaut;Wallonie
5370;Namur;Wallonie
6853;Luxembourg;Wallonie
3200;Vlaams-Brabant;Vlaams
1470;Brabant Wallon;Wallonie
9800;Oost-Vlanderen;Vlaams
1850;Vlaams-Brabant;Vlaams
3440;Vlaams-Brabant;Vlaams
6900;Luxembourg;Wallonie
7022;Hainaut;Wallonie
6870;Luxembourg;Wallonie
3940;Limburg;Vlaams
4680;Liège;Wallonie
3550;Limburg;Vlaams
4342;Liège;Wallonie
7060;Hainaut;Wallonie
4845;Liège;Wallonie
4357;Liège;Wallonie
8870;West-Vlanderen;Vlaams
1880;Vlaams-Brabant;Vlaams
4367;Liège;Wallonie
9451;Oost-Vlanderen;Vlaams
4600;Liège;Wallonie
5300;Namur;Wallonie
6761;Luxembourg;Wallonie
9700;Oost-Vlanderen;Vlaams
5310;Namur;Wallonie
5310;Namur;Wallonie
6463;Hainaut;Wallonie
5020;Namur;Wallonie
8433;West-Vlanderen;Vlaams
6630;Luxembourg;Wallonie
1785;Vlaams-Brabant;Vlaams
9500;Oost-Vlanderen;Vlaams
1400;Brabant Wallon;Wallonie
5530;Namur;Wallonie
7387;Hainaut;Wallonie
9860;Oost-Vlanderen;Vlaams
2640;Antwerp;Vlaams
9700;Oost-Vlanderen;Vlaams
5377;Namur;Wallonie
3890;Limburg;Vlaams
2491;Antwerp;Vlaams
8670;West-Vlanderen;Vlaams
8980;West-Vlanderen;Vlaams
5600;Namur;Wallonie
7160;Hainaut;Wallonie
7782;Hainaut;Wallonie
3840;Limburg;Vlaams
5620;Namur;Wallonie
7034;Hainaut;Wallonie
5003;Namur;Wallonie
6460;Hainaut;Wallonie
5364;Namur;Wallonie
4100;Liège;Wallonie
9830;Oost-Vlanderen;Vlaams
1932;Vlaams-Brabant;Vlaams
5651;Namur;Wallonie
7061;Hainaut;Wallonie
4890;Liège;Wallonie
5140;Namur;Wallonie
4280;Liège;Wallonie
4347;Liège;Wallonie
3770;Limburg;Vlaams
3401;Vlaams-Brabant;Vlaams
5650;Namur;Wallonie
5580;Namur;Wallonie
4840;Liège;Wallonie
3020;Vlaams-Brabant;Vlaams
9800;Oost-Vlanderen;Vlaams
9790;Oost-Vlanderen;Vlaams
4190;Liège;Wallonie
8380;West-Vlanderen;Vlaams
3770;Limburg;Vlaams
2970;'S Gravenwezel;Oui
6997;Luxembourg;Wallonie
7910;Hainaut;Wallonie
6860;Luxembourg;Wallonie
7800;Hainaut;Wallonie
6500;Hainaut;Wallonie
7971;Hainaut;Wallonie
4983;Liège;Wallonie
8730;West-Vlanderen;Vlaams
8510;West-Vlanderen;Vlaams
6834;Luxembourg;Wallonie
2040;Antwerp;Vlaams
4257;Liège;Wallonie
5380;Namur;Wallonie
1390;Brabant Wallon;Wallonie
4300;Liège;Wallonie
2530;Antwerp;Vlaams
7866;Hainaut;Wallonie
6941;Luxembourg;Wallonie
2221;Antwerp;Vlaams
7040;Hainaut;Wallonie
2930;Antwerp;Vlaams
1910;Vlaams-Brabant;Vlaams
6971;Luxembourg;Wallonie
7903;Hainaut;Wallonie
6200;Hainaut;Wallonie
6200;Hainaut;Wallonie
4180;Liège;Wallonie
4253;Liège;Wallonie
9890;Oost-Vlanderen;Vlaams
3400;Vlaams-Brabant;Vlaams
3071;Vlaams-Brabant;Vlaams
4980;Liège;Wallonie
3790;Limburg;Vlaams
4970;Liège;Wallonie
5660;Namur;Wallonie
3600;Limburg;Vlaams
6840;Luxembourg;Wallonie
3840;Limburg;Vlaams
3300;Vlaams-Brabant;Vlaams
5590;Namur;Wallonie
5600;Namur;Wallonie
3840;Limburg;Vlaams
3582;Limburg;Vlaams
9150;Oost-Vlanderen;Vlaams
9620;Oost-Vlanderen;Vlaams
3000;Vlaams-Brabant;Vlaams
7134;Hainaut;Wallonie
6238;Hainaut;Wallonie
4600;Liège;Wallonie
1325;Brabant Wallon;Wallonie
6280;Hainaut;Wallonie
9230;Oost-Vlanderen;Vlaams
9180;Oost-Vlanderen;Vlaams
3404;Vlaams-Brabant;Vlaams
8950;West-Vlanderen;Vlaams
6640;Luxembourg;Wallonie
6831;Luxembourg;Wallonie
2200;Antwerp;Vlaams
5640;Namur;Wallonie
6850;Luxembourg;Wallonie
7380;Hainaut;Wallonie
6792;Luxembourg;Wallonie
7520;Hainaut;Wallonie
3621;Limburg;Vlaams
4624;Liège;Wallonie
6760;Luxembourg;Wallonie
5600;Namur;Wallonie
1495;Brabant Wallon;Wallonie
7830;Hainaut;Wallonie
9112;Oost-Vlanderen;Vlaams
3500;Limburg;Vlaams
4140;Liège;Wallonie
8573;West-Vlanderen;Vlaams
9910;Oost-Vlanderen;Vlaams
5670;Namur;Wallonie
4161;Liège;Wallonie
4280;Liège;Wallonie
1570;Vlaams-Brabant;Vlaams
2531;Antwerp;Vlaams
3700;Limburg;Vlaams
6900;Luxembourg;Wallonie
9772;Oost-Vlanderen;Vlaams
5540;Namur;Wallonie
6210;Hainaut;Wallonie
8840;West-Vlanderen;Vlaams
8710;West-Vlanderen;Vlaams
9800;Oost-Vlanderen;Vlaams
8630;West-Vlanderen;Vlaams
8377;West-Vlanderen;Vlaams
3831;Limburg;Vlaams
5380;Namur;Wallonie
4460;Liège;Wallonie
6990;Luxembourg;Wallonie
7110;Hainaut;Wallonie
1050;Brussels;Brussels Capital
5362;Namur;Wallonie
4601;Liège;Wallonie
3384;Vlaams-Brabant;Vlaams
7040;Hainaut;Wallonie
4280;Liège;Wallonie
5570;Namur;Wallonie
1320;Brabant Wallon;Wallonie
5555;Namur;Wallonie
3830;Limburg;Vlaams
5651;Namur;Wallonie
4560;Liège;Wallonie
8583;West-Vlanderen;Vlaams
7110;Hainaut;Wallonie
4020;Liège;Wallonie
3800;Limburg;Vlaams
5555;Namur;Wallonie
6536;Hainaut;Wallonie
5530;Namur;Wallonie
9320;Oost-Vlanderen;Vlaams
7387;Hainaut;Wallonie
8587;West-Vlanderen;Vlaams
6856;Luxembourg;Wallonie
4620;Liège;Wallonie
3380;Vlaams-Brabant;Vlaams
5680;Namur;Wallonie
7160;Hainaut;Wallonie
3450;Vlaams-Brabant;Vlaams
6927;Luxembourg;Wallonie
6986;Luxembourg;Wallonie
6840;Luxembourg;Wallonie
3930;Limburg;Vlaams
6990;Luxembourg;Wallonie
5370;Namur;Wallonie
8587;West-Vlanderen;Vlaams
5380;Namur;Wallonie
7050;Hainaut;Wallonie
3770;Limburg;Vlaams
9070;Oost-Vlanderen;Vlaams
1435;Brabant Wallon;Wallonie
9550;Oost-Vlanderen;Vlaams
4852;Liège;Wallonie
2320;Antwerp;Vlaams
2235;Antwerp;Vlaams
2235;Antwerp;Vlaams
1367;Brabant Wallon;Wallonie
1350;Brabant Wallon;Wallonie
9970;Oost-Vlanderen;Vlaams
3472;Vlaams-Brabant;Vlaams
9130;Oost-Vlanderen;Vlaams
3740;Limburg;Vlaams
7100;Hainaut;Wallonie
1020;Brussels;Brussels Capital
3620;Limburg;Vlaams
6530;Hainaut;Wallonie
5590;Namur;Wallonie
4042;Liège;Wallonie
9160;Oost-Vlanderen;Vlaams
7870;Hainaut;Wallonie
1840;Vlaams-Brabant;Vlaams
9920;Oost-Vlanderen;Vlaams
5170;Namur;Wallonie
6591;Hainaut;Wallonie
5060;Namur;Wallonie
4420;Liège;Wallonie
7870;Hainaut;Wallonie
3790;Limburg;Vlaams
9636;Oost-Vlanderen;Vlaams
1390;Brabant Wallon;Wallonie
7063;Hainaut;Wallonie
1930;Vlaams-Brabant;Vlaams
2260;Antwerp;Vlaams
5670;Namur;Wallonie
8600;West-Vlanderen;Vlaams
7040;Hainaut;Wallonie
8880;West-Vlanderen;Vlaams
5680;Namur;Wallonie
7601;Hainaut;Wallonie
1601;Vlaams-Brabant;Vlaams
4672;Liège;Wallonie
1030;Brussels;Brussels Capital
9820;Oost-Vlanderen;Vlaams
2960;Antwerp;Vlaams
9620;Oost-Vlanderen;Vlaams
8433;West-Vlanderen;Vlaams
6890;Luxembourg;Wallonie
5523;Namur;Wallonie
8400;West-Vlanderen;Vlaams
5020;Namur;Wallonie
1360;Brabant Wallon;Wallonie
4630;Liège;Wallonie
3120;Vlaams-Brabant;Vlaams
3770;Limburg;Vlaams
9620;Oost-Vlanderen;Vlaams
6690;Luxembourg;Wallonie
4260;Liège;Wallonie
4530;Liège;Wallonie
8421;West-Vlanderen;Vlaams
3840;Limburg;Vlaams
7548;Hainaut;Wallonie
8790;West-Vlanderen;Vlaams
3290;Vlaams-Brabant;Vlaams
7890;Hainaut;Wallonie
1980;Vlaams-Brabant;Vlaams
6890;Luxembourg;Wallonie
6987;Luxembourg;Wallonie
4950;Liège;Wallonie
7387;Hainaut;Wallonie
1331;Brabant Wallon;Wallonie
1450;Brabant Wallon;Wallonie
7330;Hainaut;Wallonie
8340;West-Vlanderen;Vlaams
8620;West-Vlanderen;Vlaams
7332;Hainaut;Wallonie
8840;West-Vlanderen;Vlaams
5060;Namur;Wallonie
7333;Hainaut;Wallonie
3272;Vlaams-Brabant;Vlaams
5300;Namur;Wallonie
5502;Namur;Wallonie
5680;Namur;Wallonie
6870;Luxembourg;Wallonie
4317;Liège;Wallonie
8600;West-Vlanderen;Vlaams
5537;Namur;Wallonie
9230;Oost-Vlanderen;Vlaams
2830;Antwerp;Vlaams
8640;West-Vlanderen;Vlaams
9660;Oost-Vlanderen;Vlaams
4280;Liège;Wallonie
5300;Namur;Wallonie
7387;Hainaut;Wallonie
5500;Namur;Wallonie
2370;Antwerp;Vlaams
1730;Vlaams-Brabant;Vlaams
4340;Liège;Wallonie
9800;Oost-Vlanderen;Vlaams
1470;Brabant Wallon;Wallonie
6940;Luxembourg;Wallonie
1650;Vlaams-Brabant;Vlaams
1673;Vlaams-Brabant;Vlaams
1082;Brussels;Brussels Capital
2590;Antwerp;Vlaams
6560;Hainaut;Wallonie
4960;Liège;Wallonie
7040;Hainaut;Wallonie
3890;Limburg;Vlaams
5550;Namur;Wallonie
7604;Hainaut;Wallonie
3840;Limburg;Vlaams
5561;Namur;Wallonie
7033;Hainaut;Wallonie
1325;Brabant Wallon;Wallonie
7711;Hainaut;Wallonie
3650;Limburg;Vlaams
6560;Hainaut;Wallonie
1790;Vlaams-Brabant;Vlaams
1040;Brussels;Brussels Capital
5560;Namur;Wallonie
7863;Hainaut;Wallonie
8691;West-Vlanderen;Vlaams
4280;Liège;Wallonie
5621;Namur;Wallonie
3840;Limburg;Vlaams
5620;Namur;Wallonie
2940;Antwerp;Vlaams
6724;Luxembourg;Wallonie
4540;Liège;Wallonie
6280;Hainaut;Wallonie
6040;Hainaut;Wallonie
3640;Limburg;Vlaams
2500;Antwerp;Vlaams
4987;Liège;Wallonie
5170;Namur;Wallonie
3630;Limburg;Vlaams
1770;Vlaams-Brabant;Vlaams
9080;Oost-Vlanderen;Vlaams
8958;West-Vlanderen;Vlaams
5030;Namur;Wallonie
9880;Oost-Vlanderen;Vlaams
4920;Liège;Wallonie
6663;Luxembourg;Wallonie
7387;Hainaut;Wallonie
8720;West-Vlanderen;Vlaams
7050;Hainaut;Wallonie
9170;Oost-Vlanderen;Vlaams
5310;Namur;Wallonie
3560;Limburg;Vlaams
7540;Hainaut;Wallonie
9660;Oost-Vlanderen;Vlaams
4041;Liège;Wallonie
8470;West-Vlanderen;Vlaams
4400;Liège;Wallonie
1435;Brabant Wallon;Wallonie
9310;Oost-Vlanderen;Vlaams
6600;Luxembourg;Wallonie
1380;Brabant Wallon;Wallonie
9660;Oost-Vlanderen;Vlaams
3680;Limburg;Vlaams
1350;Brabant Wallon;Wallonie
7804;Hainaut;Wallonie
5660;Namur;Wallonie
6600;Luxembourg;Wallonie
5600;Namur;Wallonie
6833;Luxembourg;Wallonie
2430;Antwerp;Vlaams
5564;Namur;Wallonie
7340;Hainaut;Wallonie
8978;West-Vlanderen;Vlaams
5100;Namur;Wallonie
4452;Liège;Wallonie
3990;Limburg;Vlaams
3012;Vlaams-Brabant;Vlaams
8750;West-Vlanderen;Vlaams
2240;Antwerp;Vlaams
8980;West-Vlanderen;Vlaams
4761;Liège;Wallonie
1210;Brussels;Brussels Capital
4671;Liège;Wallonie
7180;Hainaut;Wallonie
9630;Oost-Vlanderen;Vlaams
9200;Oost-Vlanderen;Vlaams
9572;Oost-Vlanderen;Vlaams
6470;Hainaut;Wallonie
8490;West-Vlanderen;Vlaams
5646;Namur;Wallonie
6661;Luxembourg;Wallonie
6530;Hainaut;Wallonie
7950;Hainaut;Wallonie
9051;Oost-Vlanderen;Vlaams
5070;Namur;Wallonie
6721;Luxembourg;Wallonie
5520;Namur;Wallonie
7181;Hainaut;Wallonie
3665;Limburg;Vlaams
7941;Hainaut;Wallonie
9290;Oost-Vlanderen;Vlaams
4300;Liège;Wallonie
7620;Hainaut;Wallonie
8680;West-Vlanderen;Vlaams
4650;Liège;Wallonie
4860;Liège;Wallonie
5336;Namur;Wallonie
4218;Liège;Wallonie
1831;Vlaams-Brabant;Vlaams
5500;Namur;Wallonie
3350;Vlaams-Brabant;Vlaams
4480;Liège;Wallonie
9160;Oost-Vlanderen;Vlaams
5644;Namur;Wallonie
4130;Liège;Wallonie
4400;Liège;Wallonie
5150;Namur;Wallonie
6464;Hainaut;Wallonie
7910;Hainaut;Wallonie
2440;Antwerp;Vlaams
1367;Brabant Wallon;Wallonie
1450;Brabant Wallon;Wallonie
7041;Hainaut;Wallonie
4690;Liège;Wallonie
7900;Hainaut;Wallonie
3150;Vlaams-Brabant;Vlaams
7100;Hainaut;Wallonie
9850;Oost-Vlanderen;Vlaams
4730;Liège;Wallonie
7334;Hainaut;Wallonie
7041;Hainaut;Wallonie
1357;Brabant Wallon;Wallonie
2200;Antwerp;Vlaams
3540;Limburg;Vlaams
4681;Liège;Wallonie
2811;Antwerp;Vlaams
5575;Namur;Wallonie
8570;West-Vlanderen;Vlaams
2920;Antwerp;Vlaams
3370;Vlaams-Brabant;Vlaams
9270;Oost-Vlanderen;Vlaams
7522;Hainaut;Wallonie
5651;Namur;Wallonie
1370;Brabant Wallon;Wallonie
7621;Hainaut;Wallonie
9521;Oost-Vlanderen;Vlaams
5680;Namur;Wallonie
9820;Oost-Vlanderen;Vlaams
5640;Namur;Wallonie
3680;Limburg;Vlaams
4870;Liège;Wallonie
2845;Antwerp;Vlaams
8377;West-Vlanderen;Vlaams
1400;Brabant Wallon;Wallonie
8730;West-Vlanderen;Vlaams
7911;Hainaut;Wallonie
4340;Liège;Wallonie
7861;Hainaut;Wallonie
4910;Liège;Wallonie
5530;Namur;Wallonie
8620;West-Vlanderen;Vlaams
6800;Luxembourg;Wallonie
7090;Hainaut;Wallonie
5330;Namur;Wallonie
3290;Vlaams-Brabant;Vlaams
9860;Oost-Vlanderen;Vlaams
8880;West-Vlanderen;Vlaams
1742;Vlaams-Brabant;Vlaams
5310;Namur;Wallonie
5020;Namur;Wallonie
7334;Hainaut;Wallonie
5670;Namur;Wallonie
4020;Liège;Wallonie
4520;Liège;Wallonie
9340;Oost-Vlanderen;Vlaams
2381;Antwerp;Vlaams
5650;Namur;Wallonie
9630;Oost-Vlanderen;Vlaams
6953;Luxembourg;Wallonie
2060;Antwerp;Vlaams
1390;Brabant Wallon;Wallonie
6880;Luxembourg;Wallonie
4630;Liège;Wallonie
9310;Oost-Vlanderen;Vlaams
9420;Oost-Vlanderen;Vlaams
6594;Hainaut;Wallonie
5000;Namur;Wallonie
4360;Liège;Wallonie
6880;Luxembourg;Wallonie
4610;Liège;Wallonie
1301;Brabant Wallon;Wallonie
2850;Antwerp;Vlaams
6200;Hainaut;Wallonie
5500;Namur;Wallonie
7940;Hainaut;Wallonie
5590;Namur;Wallonie
7780;Hainaut;Wallonie
4280;Liège;Wallonie
5100;Namur;Wallonie
9070;Oost-Vlanderen;Vlaams
7730;Hainaut;Wallonie
8460;West-Vlanderen;Vlaams
5380;Namur;Wallonie
4400;Liège;Wallonie
7880;Hainaut;Wallonie
5334;Namur;Wallonie
7503;Hainaut;Wallonie
4260;Liège;Wallonie
7823;Hainaut;Wallonie
4300;Liège;Wallonie
3670;Limburg;Vlaams
6704;Luxembourg;Wallonie
5580;Namur;Wallonie
8610;West-Vlanderen;Vlaams
4920;Liège;Wallonie
1540;Vlaams-Brabant;Vlaams
4728;Liège;Wallonie
8830;West-Vlanderen;Vlaams
4682;Liège;Wallonie
9270;Oost-Vlanderen;Vlaams
1081;Brussels;Brussels Capital
4450;Liège;Wallonie
4261;Liège;Wallonie
4217;Liège;Wallonie
7730;Hainaut;Wallonie
8432;West-Vlanderen;Vlaams
2500;Antwerp;Vlaams
1840;Vlaams-Brabant;Vlaams
2800;Antwerp;Vlaams
3870;Limburg;Vlaams
9420;Oost-Vlanderen;Vlaams
4630;Liège;Wallonie
6870;Luxembourg;Wallonie
3740;Limburg;Vlaams
7140;Hainaut;Wallonie
4670;Liège;Wallonie
3670;Limburg;Vlaams
6840;Luxembourg;Wallonie
2560;Antwerp;Vlaams
7080;Hainaut;Wallonie
7022;Hainaut;Wallonie
6850;Luxembourg;Wallonie
5190;Namur;Wallonie
2861;Antwerp;Vlaams
3660;Limburg;Vlaams
3090;Vlaams-Brabant;Vlaams
9661;Oost-Vlanderen;Vlaams
1360;Brabant Wallon;Wallonie
1800;Vlaams-Brabant;Vlaams
5380;Namur;Wallonie
3570;Limburg;Vlaams
6790;Luxembourg;Wallonie
5660;Namur;Wallonie
6706;Luxembourg;Wallonie
1674;Vlaams-Brabant;Vlaams
3700;Limburg;Vlaams
6830;Luxembourg;Wallonie
5575;Namur;Wallonie
6800;Luxembourg;Wallonie
4760;Liège;Wallonie
5620;Namur;Wallonie
5380;Namur;Wallonie
8660;West-Vlanderen;Vlaams
9470;Oost-Vlanderen;Vlaams
8630;West-Vlanderen;Vlaams
1982;Vlaams-Brabant;Vlaams
8870;West-Vlanderen;Vlaams
5060;Namur;Wallonie
4260;Liège;Wallonie
7181;Hainaut;Wallonie
5340;Namur;Wallonie
6440;Hainaut;Wallonie
5576;Namur;Wallonie
3960;Limburg;Vlaams
9308;Oost-Vlanderen;Vlaams
4140;Liège;Wallonie
6041;Hainaut;Wallonie
9620;Oost-Vlanderen;Vlaams
9220;Oost-Vlanderen;Vlaams
9700;Oost-Vlanderen;Vlaams
9308;Oost-Vlanderen;Vlaams
7830;Hainaut;Wallonie
7950;Hainaut;Wallonie
7801;Hainaut;Wallonie
8691;West-Vlanderen;Vlaams
3990;Limburg;Vlaams
8300;West-Vlanderen;Vlaams
1950;Vlaams-Brabant;Vlaams
1320;Brabant Wallon;Wallonie
4300;Liège;Wallonie
7070;Hainaut;Wallonie
6142;Hainaut;Wallonie
8434;West-Vlanderen;Vlaams
1651;Vlaams-Brabant;Vlaams
3630;Limburg;Vlaams
5374;Namur;Wallonie
4960;Liège;Wallonie
7190;Hainaut;Wallonie
3630;Limburg;Vlaams
4577;Liège;Wallonie
7750;Hainaut;Wallonie
6470;Hainaut;Wallonie
9790;Oost-Vlanderen;Vlaams
9630;Oost-Vlanderen;Vlaams
6820;Luxembourg;Wallonie
3740;Limburg;Vlaams
7062;Hainaut;Wallonie
4121;Liège;Wallonie
9320;Oost-Vlanderen;Vlaams
1755;Vlaams-Brabant;Vlaams
4877;Liège;Wallonie
8780;West-Vlanderen;Vlaams
3640;Limburg;Vlaams
5550;Namur;Wallonie
4210;Liège;Wallonie
8460;West-Vlanderen;Vlaams
3670;Limburg;Vlaams
9406;Oost-Vlanderen;Vlaams
4800;Liège;Wallonie
5370;Namur;Wallonie
4280;Liège;Wallonie
2870;Antwerp;Vlaams
8301;West-Vlanderen;Vlaams
9600;Oost-Vlanderen;Vlaams
3370;Vlaams-Brabant;Vlaams
3110;Vlaams-Brabant;Vlaams
4780;Liège;Wallonie
9260;Oost-Vlanderen;Vlaams
9506;Oost-Vlanderen;Vlaams
8200;West-Vlanderen;Vlaams
3300;Vlaams-Brabant;Vlaams
4557;Liège;Wallonie
7060;Hainaut;Wallonie
5190;Namur;Wallonie
1840;Vlaams-Brabant;Vlaams
7090;Hainaut;Wallonie
9620;Oost-Vlanderen;Vlaams
7951;Hainaut;Wallonie
5370;Namur;Wallonie
9500;Oost-Vlanderen;Vlaams
6460;Hainaut;Wallonie
1602;Vlaams-Brabant;Vlaams
5650;Namur;Wallonie
8581;West-Vlanderen;Vlaams
4950;Liège;Wallonie
4219;Liège;Wallonie
8420;West-Vlanderen;Vlaams
9230;Oost-Vlanderen;Vlaams
9280;Oost-Vlanderen;Vlaams
3350;Vlaams-Brabant;Vlaams
8670;West-Vlanderen;Vlaams
2990;Antwerp;Vlaams
8902;West-Vlanderen;Vlaams
2040;Antwerp;Vlaams
6980;Luxembourg;Wallonie
3130;Vlaams-Brabant;Vlaams
3211;Vlaams-Brabant;Vlaams
5537;Namur;Wallonie
7522;Hainaut;Wallonie
7090;Hainaut;Wallonie
8900;West-Vlanderen;Vlaams
9255;Oost-Vlanderen;Vlaams
7911;Hainaut;Wallonie
5580;Namur;Wallonie
7604;Hainaut;Wallonie
5630;Namur;Wallonie
6747;Luxembourg;Wallonie
4260;Liège;Wallonie
5590;Namur;Wallonie
3290;Vlaams-Brabant;Vlaams
9900;Oost-Vlanderen;Vlaams
3670;Limburg;Vlaams
7134;Hainaut;Wallonie
9620;Oost-Vlanderen;Vlaams
7502;Hainaut;Wallonie
6990;Luxembourg;Wallonie
3450;Vlaams-Brabant;Vlaams
7822;Hainaut;Wallonie
7011;Hainaut;Wallonie
5660;Namur;Wallonie
6960;Luxembourg;Wallonie
6952;Luxembourg;Wallonie
7350;Hainaut;Wallonie
1785;Vlaams-Brabant;Vlaams
6560;Hainaut;Wallonie
6929;Luxembourg;Wallonie
7531;Hainaut;Wallonie
3940;Limburg;Vlaams
1670;Vlaams-Brabant;Vlaams
6941;Luxembourg;Wallonie
3220;Vlaams-Brabant;Vlaams
5580;Namur;Wallonie
4450;Liège;Wallonie
3220;Vlaams-Brabant;Vlaams
7611;Hainaut;Wallonie
7170;Hainaut;Wallonie
8691;West-Vlanderen;Vlaams
6800;Luxembourg;Wallonie
4830;Liège;Wallonie
6953;Luxembourg;Wallonie
7110;Hainaut;Wallonie
3350;Vlaams-Brabant;Vlaams
6640;Luxembourg;Wallonie
5000;Namur;Wallonie
4560;Liège;Wallonie
4367;Liège;Wallonie
7501;Hainaut;Wallonie
3350;Vlaams-Brabant;Vlaams
3583;Limburg;Vlaams
7740;Hainaut;Wallonie
3900;Limburg;Vlaams
5590;Namur;Wallonie
3700;Limburg;Vlaams
5170;Namur;Wallonie
7040;Hainaut;Wallonie
7971;Hainaut;Wallonie
8930;West-Vlanderen;Vlaams
3950;Limburg;Vlaams
3740;Limburg;Vlaams
2820;Antwerp;Vlaams
5170;Namur;Wallonie
6769;Luxembourg;Wallonie
3730;Limburg;Vlaams
3740;Limburg;Vlaams
6900;Luxembourg;Wallonie
3700;Limburg;Vlaams
5030;Namur;Wallonie
2627;Antwerp;Vlaams
9260;Oost-Vlanderen;Vlaams
3040;Vlaams-Brabant;Vlaams
8793;West-Vlanderen;Vlaams
3051;Vlaams-Brabant;Vlaams
5333;Namur;Wallonie
4920;Liège;Wallonie
6927;Luxembourg;Wallonie
4560;Liège;Wallonie
4367;Liège;Wallonie
8490;West-Vlanderen;Vlaams
6440;Hainaut;Wallonie
7322;Hainaut;Wallonie
5070;Namur;Wallonie
4683;Liège;Wallonie
6220;Hainaut;Wallonie
7340;Hainaut;Wallonie
7910;Hainaut;Wallonie
3150;Vlaams-Brabant;Vlaams
2323;Antwerp;Vlaams
9052;Oost-Vlanderen;Vlaams
